{"type":"FeatureCollection","features":[{"type":"Feature","properties":{},"geometry":{"type":"LineString","coordinates":[[-124.76,48.495],[-123.856,48.26],[-123.539,48.217],[-123.387,48.249],[-123.142,48.4],[-123.226,48.577],[-123.212,48.685],[-123.014,48.764],[-123.029,48.822],[-123.314,48.993]]}},{"type":"Feature","properties":{},"geometry":{"type":"LineString","coordinates":[[-56.483,1.942],[-56.837,1.881],[-57.01,1.921],[-57.093,2.006],[-57.318,1.963],[-57.413,1.909],[-57.546,1.726],[-57.983,1.648],[-58.035,1.52],[-58.314,1.592],[-58.396,1.482],[-58.506,1.439],[-58.512,1.285],[-58.685,1.281],[-58.822,1.201],[-58.969,1.305],[-59.231,1.376],[-59.536,1.7],[-59.667,1.746],[-59.669,1.842],[-59.756,1.901],[-59.755,2.274],[-59.89,2.363],[-59.994,2.69],[-59.972,2.99],[-59.831,3.349],[-59.854,3.587],[-59.679,3.7],[-59.551,3.934],[-59.739,4.227],[-59.7,4.354],[-59.833,4.476],[-60.149,4.533],[-60.032,4.741],[-59.991,5.083],[-60.142,5.239],[-60.242,5.258],[-60.46,5.188],[-60.742,5.202]]}},{"type":"Feature","properties":{},"geometry":{"type":"LineString","coordinates":[[-71.779,19.718],[-71.711,19.487],[-71.746,19.286],[-71.645,19.164],[-71.807,18.987],[-71.734,18.856],[-71.743,18.733],[-71.866,18.614],[-71.987,18.61],[-71.873,18.416],[-71.762,18.341],[-71.768,18.039]]}},{"type":"Feature","properties":{},"geometry":{"type":"LineString","coordinates":[[-90.095,13.737],[-90.105,13.835],[-90.048,13.904],[-89.57,14.225],[-89.574,14.39],[-89.363,14.416]]}},{"type":"Feature","properties":{},"geometry":{"type":"LineString","coordinates":[[-89.363,14.416],[-89.121,14.37],[-88.708,14.032],[-88.513,13.979],[-88.483,13.854],[-88.151,13.987],[-87.991,13.88],[-87.802,13.89],[-87.715,13.813],[-87.782,13.521],[-87.737,13.451],[-87.814,13.399]]}},{"type":"Feature","properties":{},"geometry":{"type":"LineString","coordinates":[[-87.337,12.979],[-87.009,13.008],[-86.918,13.224],[-86.729,13.284],[-86.759,13.746],[-86.332,13.77],[-86.151,13.995],[-86.04,14.05],[-85.984,13.966],[-85.753,13.852],[-85.682,13.983],[-85.179,14.343],[-85.161,14.525],[-85.037,14.608],[-84.985,14.752],[-84.86,14.81],[-84.646,14.661],[-84.454,14.644],[-84.34,14.706],[-84.292,14.687],[-84.264,14.739],[-84.151,14.72],[-84.066,14.786],[-83.972,14.771],[-83.635,14.876],[-83.537,14.977],[-83.158,14.993]]}},{"type":"Feature","properties":{},"geometry":{"type":"LineString","coordinates":[[-57.595,3.368],[-57.647,3.395],[-57.649,3.517],[-57.833,3.676],[-57.908,3.857],[-58.032,4.002],[-58.055,4.172],[-57.846,4.668],[-57.917,4.82],[-57.881,4.881],[-57.711,4.991],[-57.331,5.02],[-57.207,5.214],[-57.28,5.247],[-57.319,5.335],[-57.195,5.548]]}},{"type":"Feature","properties":{},"geometry":{"type":"LineString","coordinates":[[-54.082,3.327],[-53.99,3.59],[-54.351,4.054],[-54.48,4.837],[-54.452,5.013],[-54.156,5.359]]}},{"type":"Feature","properties":{},"geometry":{"type":"LineString","coordinates":[[-88.228,15.729],[-88.961,15.152],[-89.143,15.072],[-89.222,14.866],[-89.172,14.607],[-89.363,14.416]]}},{"type":"Feature","properties":{},"geometry":{"type":"LineString","coordinates":[[-77.374,8.658],[-77.478,8.498],[-77.196,7.972],[-77.346,7.837],[-77.351,7.706],[-77.538,7.566],[-77.587,7.543],[-77.706,7.691],[-77.762,7.699],[-77.744,7.537],[-77.828,7.443],[-77.901,7.229]]}},{"type":"Feature","properties":{},"geometry":{"type":"LineString","coordinates":[[-60.742,5.202],[-61.391,5.939],[-61.129,6.214],[-61.204,6.588],[-61.146,6.695],[-60.938,6.733],[-60.873,6.787],[-60.718,6.768],[-60.352,7.003],[-60.325,7.134],[-60.583,7.156],[-60.633,7.211],[-60.607,7.321],[-60.719,7.536],[-60.514,7.813],[-60.381,7.828],[-60.032,8.054],[-59.965,8.192],[-59.849,8.249],[-59.829,8.279],[-60.018,8.549]]}},{"type":"Feature","properties":{},"geometry":{"type":"LineString","coordinates":[[-60.742,5.202],[-60.672,5.164],[-60.604,4.949],[-60.679,4.827],[-60.906,4.687],[-61.003,4.535],[-61.28,4.517],[-61.479,4.402],[-61.554,4.288],[-61.821,4.197],[-62.153,4.098],[-62.411,4.157],[-62.712,4.018],[-62.765,3.673],[-62.857,3.593],[-62.969,3.594],[-63.339,3.944],[-63.527,3.894],[-63.653,3.941],[-64.021,3.929],[-64.192,4.127],[-64.576,4.14],[-64.722,4.274],[-64.789,4.276],[-64.818,4.232],[-64.669,4.012],[-64.221,3.587],[-64.219,3.205],[-64.038,2.802],[-64.025,2.482],[-63.389,2.412],[-63.433,2.156],[-64.009,1.932],[-64.115,1.619],[-64.205,1.53],[-64.304,1.455],[-64.486,1.453],[-64.732,1.253],[-64.818,1.257],[-65.104,1.108],[-65.361,0.869],[-65.473,0.691],[-65.556,0.688],[-65.523,0.843],[-65.566,0.926],[-65.681,0.983],[-66.06,0.785],[-66.347,0.767],[-66.876,1.223]]}},{"type":"Feature","properties":{},"geometry":{"type":"LineString","coordinates":[[-84.348,10.98],[-84.701,11.052],[-84.909,10.945],[-85.584,11.189],[-85.744,11.062]]}},{"type":"Feature","properties":{},"geometry":{"type":"LineString","coordinates":[[-82.879,8.071],[-82.913,8.2],[-83.023,8.316],[-82.845,8.489],[-82.917,8.74],[-82.74,8.899],[-82.741,8.952],[-82.94,9.06],[-82.94,9.449],[-82.801,9.592],[-82.644,9.506],[-82.564,9.577]]}},{"type":"Feature","properties":{},"geometry":{"type":"LineString","coordinates":[[-66.876,1.223],[-66.988,1.68],[-67.215,2.275],[-67.211,2.39],[-67.568,2.69],[-67.619,2.794],[-67.766,2.833],[-67.859,2.794],[-67.835,2.893],[-67.354,3.323],[-67.311,3.416],[-67.662,3.864],[-67.855,4.507],[-67.825,5.27],[-67.642,5.559],[-67.575,5.833],[-67.474,5.93],[-67.439,6.026],[-67.482,6.18],[-67.568,6.242],[-67.859,6.29],[-68.472,6.157],[-68.937,6.198],[-69.09,6.184],[-69.268,6.1],[-69.357,6.148],[-69.427,6.124],[-70.129,6.954],[-70.387,6.973],[-70.737,7.09],[-71.129,6.987],[-71.621,7.033],[-71.893,6.99],[-72.007,7.033],[-72.084,7.097],[-72.208,7.37],[-72.395,7.415],[-72.472,7.524],[-72.446,7.966],[-72.358,8.087],[-72.39,8.287],[-72.417,8.382],[-72.665,8.628],[-72.796,9.109],[-72.96,9.135],[-73.058,9.26],[-73.193,9.194],[-73.366,9.194],[-73.007,9.789],[-72.869,10.491],[-72.69,10.836],[-72.446,11.114],[-72.249,11.196],[-71.958,11.666],[-71.32,11.862]]}},{"type":"Feature","properties":{},"geometry":{"type":"LineString","coordinates":[[-139.057,60.002],[-139.185,60.084],[-139.079,60.344],[-139.676,60.328],[-139.973,60.183],[-140.453,60.3],[-140.525,60.218],[-141.002,60.3],[-141.002,69.651]]}},{"type":"Feature","properties":{},"geometry":{"type":"LineString","coordinates":[[-130.622,54.709],[-130.214,55.026],[-130.018,55.285],[-130.123,55.691],[-130.025,55.888],[-130.056,56.065],[-130.098,56.109],[-130.215,56.083],[-130.413,56.123],[-130.477,56.231],[-130.649,56.264],[-130.742,56.341],[-131.083,56.405],[-131.575,56.599],[-131.824,56.59],[-131.866,56.793],[-132.104,56.857],[-132.032,57.027],[-132.338,57.079],[-132.232,57.199],[-133.423,58.337],[-133.401,58.411],[-133.821,58.705],[-134.297,58.898],[-134.441,59.085],[-134.944,59.288],[-135.071,59.441],[-135.051,59.579],[-135.476,59.793],[-136.322,59.605],[-136.247,59.533],[-136.348,59.456],[-136.466,59.459],[-136.467,59.28],[-136.579,59.152],[-136.813,59.15],[-137.439,58.903],[-137.521,58.915],[-137.484,58.991],[-137.593,59.226],[-138.632,59.778],[-138.705,59.901],[-139.057,60.002]]}},{"type":"Feature","properties":{},"geometry":{"type":"LineString","coordinates":[[-123.314,48.993],[-122.686,48.993]]}},{"type":"Feature","properties":{},"geometry":{"type":"LineString","coordinates":[[-88.894,15.891],[-89.233,15.889],[-89.161,17.815]]}},{"type":"Feature","properties":{},"geometry":{"type":"LineString","coordinates":[[-117.128,32.533],[-114.725,32.715],[-114.836,32.508],[-111.042,31.324],[-108.214,31.329],[-108.212,31.779],[-106.453,31.77],[-106.148,31.451],[-104.918,30.583],[-104.681,30.134],[-104.622,29.854],[-104.401,29.574],[-103.99,29.323],[-103.258,29.001],[-103.09,29.042],[-102.892,29.216],[-102.734,29.644],[-102.615,29.752],[-102.476,29.769],[-102.343,29.865],[-101.991,29.796],[-101.569,29.809],[-101.38,29.743],[-100.755,29.183],[-100.332,28.503],[-100.296,28.328],[-100.112,28.173],[-99.754,27.73],[-99.505,27.548],[-99.444,27.037],[-99.23,26.762],[-99.108,26.447],[-98.275,26.111],[-97.801,26.042],[-97.376,25.872],[-97.282,25.942],[-97.146,25.961]]}},{"type":"Feature","properties":{},"geometry":{"type":"LineString","coordinates":[[-92.235,14.545],[-92.16,14.691],[-92.159,14.964],[-92.075,15.074],[-92.204,15.275],[-91.737,16.07],[-90.447,16.073],[-90.417,16.391],[-90.634,16.511],[-90.711,16.708],[-90.976,16.868],[-91.392,17.236],[-90.993,17.252],[-90.989,17.816],[-89.161,17.815],[-89.134,17.971],[-89.05,18],[-88.898,17.915],[-88.806,17.966],[-88.523,18.446],[-88.461,18.477],[-88.296,18.472],[-88.249,18.413],[-88.04,18.416],[-88.042,18.195],[-87.826,18.181]]}},{"type":"Feature","properties":{},"geometry":{"type":"LineString","coordinates":[[-84.348,10.98],[-84.168,10.78],[-83.919,10.735],[-83.713,10.786],[-83.642,10.917]]}},{"type":"Feature","properties":{},"geometry":{"type":"LineString","coordinates":[[-122.686,48.993],[-95.162,48.992],[-95.155,49.37],[-94.875,49.319],[-94.803,49.003],[-94.705,48.809],[-94.621,48.743],[-94.055,48.659],[-93.708,48.525],[-93.464,48.561],[-93.378,48.617],[-92.996,48.612],[-92.501,48.435],[-92.415,48.277],[-92.172,48.338],[-92.005,48.302],[-91.518,48.058],[-91.387,48.059],[-90.916,48.209],[-90.84,48.201],[-90.744,48.105],[-90.092,48.118],[-89.994,48.015],[-89.901,47.995],[-89.456,47.996],[-88.378,48.303],[-84.876,46.9],[-84.779,46.637],[-84.562,46.457],[-84.149,46.543],[-84.088,46.227],[-83.978,46.085],[-83.616,46.117],[-83.469,45.995],[-83.593,45.817],[-82.551,45.347],[-82.138,43.571],[-82.408,43.073],[-82.545,42.625],[-82.868,42.385],[-83.073,42.3],[-83.15,42.142],[-83.142,41.976],[-83.03,41.833],[-82.69,41.675],[-82.439,41.675],[-81.278,42.209],[-80.248,42.366],[-79.037,42.802],[-78.915,42.909],[-79.012,42.997],[-79.059,43.278],[-79.172,43.467],[-78.846,43.583],[-78.458,43.631],[-76.82,43.629],[-76.465,44.058],[-76.151,44.304],[-75.876,44.417],[-75.401,44.772],[-74.996,44.97],[-74.857,45.004],[-71.518,45.008],[-71.327,45.29],[-71.135,45.263],[-71,45.337],[-70.865,45.271],[-70.799,45.405],[-70.711,45.409],[-70.702,45.551],[-70.421,45.738],[-70.296,45.906],[-70.248,46.251],[-70.067,46.441],[-70.008,46.709],[-69.243,47.463],[-69.05,47.427],[-69.054,47.295],[-68.937,47.211],[-68.235,47.346],[-67.807,47.083],[-67.767,45.927],[-67.802,45.728],[-67.596,45.621],[-67.433,45.603],[-67.424,45.53],[-67.488,45.501],[-67.428,45.378],[-67.473,45.276],[-67.367,45.174],[-67.125,45.169]]}}]}