{"type":"FeatureCollection","features":[{"type":"Feature","properties":{"name":"Lake Erie"},"geometry":{"type":"Polygon","coordinates":[[[-83.105,42.286],[-83.076,42.275],[-83.108,42.071],[-82.834,41.997],[-82.645,42.037],[-82.512,41.932],[-82.462,42.058],[-82.412,42.103],[-81.874,42.315],[-81.867,42.258],[-81.73,42.447],[-81.404,42.63],[-81.039,42.662],[-80.094,42.546],[-80.062,42.554],[-80.446,42.604],[-80.396,42.676],[-80.22,42.774],[-80.099,42.802],[-79.386,42.881],[-79.057,42.862],[-78.922,42.924],[-79.04,43.021],[-79.073,43.093],[-78.908,43.07],[-78.9,43.033],[-78.92,42.948],[-78.878,42.799],[-79.209,42.555],[-79.512,42.391],[-80.334,42.041],[-81.229,41.77],[-81.723,41.511],[-82.121,41.493],[-82.48,41.398],[-82.643,41.467],[-83.027,41.455],[-82.7,41.521],[-82.831,41.58],[-82.963,41.542],[-83.456,41.742],[-83.362,41.88],[-83.177,42.049],[-83.175,42.146],[-83.105,42.286]],[[-78.99,42.992],[-78.914,43.042],[-79.014,43.052],[-78.99,42.992]],[[-82.638,41.747],[-82.643,41.815],[-82.674,41.806],[-82.685,41.736],[-82.638,41.747]]]}},{"type":"Feature","properties":{"name":"Lake Winnipeg"},"geometry":{"type":"Polygon","coordinates":[[[-96.373,50.729],[-96.294,50.624],[-96.392,50.629],[-96.542,50.728],[-96.588,50.664],[-96.608,50.552],[-96.576,50.468],[-96.683,50.398],[-96.866,50.418],[-96.931,50.461],[-96.983,50.683],[-96.938,51.06],[-96.627,51.324],[-96.708,51.364],[-96.908,51.206],[-96.979,51.204],[-96.982,51.251],[-96.742,51.554],[-96.736,51.593],[-96.785,51.611],[-96.826,51.71],[-96.881,51.724],[-97.106,51.642],[-97.141,51.502],[-97.253,51.444],[-97.289,51.593],[-97.24,51.766],[-97.25,51.865],[-97.357,52.04],[-97.496,52.001],[-97.573,51.924],[-97.6,51.988],[-97.497,52.133],[-97.743,52.135],[-97.774,52.109],[-97.729,52.088],[-97.735,52.045],[-97.792,51.914],[-97.823,51.889],[-97.963,51.927],[-98.036,51.981],[-98.045,52.052],[-98.139,52.162],[-98.188,52.28],[-98.429,52.382],[-98.469,52.486],[-98.809,52.725],[-98.896,52.856],[-98.904,52.901],[-98.773,52.965],[-98.46,53.044],[-98.696,53.082],[-98.99,53.048],[-99.23,53.185],[-99.202,53.353],[-99.042,53.557],[-98.983,53.718],[-99.001,53.754],[-98.929,53.867],[-98.811,53.897],[-98.613,53.843],[-98.299,53.834],[-98.009,53.71],[-97.91,53.7],[-97.9,53.738],[-98.261,53.912],[-98.297,54.018],[-98.021,54.41],[-97.932,54.375],[-97.99,54.322],[-97.82,54.3],[-98.083,54.202],[-98.213,54.025],[-98.061,53.931],[-98.001,54.002],[-97.734,54.081],[-97.762,54.013],[-97.972,53.98],[-97.832,53.736],[-97.828,53.641],[-97.352,53.026],[-97.424,52.965],[-97.398,52.879],[-97.198,52.673],[-97.002,52.269],[-97.019,52.204],[-96.986,52.133],[-96.835,51.942],[-96.844,51.866],[-96.707,51.815],[-96.706,51.773],[-96.757,51.763],[-96.722,51.704],[-96.601,51.596],[-96.495,51.413],[-96.29,51.251],[-96.288,51.208],[-96.394,51.088],[-96.373,50.729]],[[-97.938,52.318],[-97.887,52.358],[-97.944,52.531],[-97.995,52.542],[-98.046,52.46],[-98.043,52.398],[-97.978,52.315],[-97.938,52.318]],[[-96.632,51.148],[-96.598,51.188],[-96.709,51.199],[-96.782,51.092],[-96.842,51.066],[-96.845,51.027],[-96.762,51.01],[-96.68,51.041],[-96.632,51.148]]]}},{"type":"Feature","properties":{"name":"Great Slave Lake"},"geometry":{"type":"Polygon","coordinates":[[[-109.022,62.807],[-108.919,62.788],[-108.993,62.739],[-109.006,62.69],[-109.252,62.597],[-109.292,62.603],[-109.263,62.657],[-109.301,62.717],[-109.396,62.739],[-109.747,62.798],[-110.284,62.827],[-110.662,62.829],[-110.756,62.763],[-111.269,62.661],[-111.294,62.634],[-111.272,62.617],[-110.411,62.685],[-109.735,62.65],[-110.101,62.557],[-110.764,62.546],[-110.647,62.482],[-110.705,62.395],[-110.95,62.403],[-111.294,62.281],[-111.307,62.233],[-111.587,62.129],[-111.634,62.071],[-111.509,62.065],[-111.62,61.95],[-112.09,61.736],[-112.208,61.624],[-112.969,61.39],[-113.007,61.449],[-113.091,61.484],[-113.359,61.445],[-113.677,61.301],[-113.704,61.246],[-113.691,61.189],[-113.729,61.172],[-113.648,61.157],[-113.63,61.106],[-113.729,61.028],[-113.832,60.997],[-113.973,60.979],[-114.173,61.006],[-114.727,60.907],[-114.913,60.91],[-115.333,60.845],[-115.877,60.848],[-116.425,60.953],[-116.528,61.029],[-117.226,61.075],[-117.668,61.308],[-117.067,61.15],[-116.738,61.224],[-116.726,61.241],[-116.797,61.298],[-116.763,61.329],[-116.199,61.266],[-115.95,61.183],[-115.988,61.235],[-115.858,61.302],[-116.039,61.381],[-115.717,61.44],[-115.745,61.511],[-115.658,61.641],[-115.508,61.757],[-115.215,61.773],[-115.162,61.736],[-114.845,61.768],[-114.648,61.857],[-114.667,61.935],[-114.724,61.937],[-114.848,62.032],[-115.033,62.099],[-115.045,62.174],[-115.167,62.244],[-115.29,62.237],[-115.307,62.254],[-115.254,62.329],[-115.309,62.371],[-115.271,62.467],[-115.289,62.482],[-115.701,62.485],[-115.809,62.599],[-115.992,62.682],[-116.038,62.726],[-116.004,62.766],[-115.763,62.72],[-115.738,62.696],[-115.754,62.667],[-115.724,62.66],[-115.289,62.607],[-115.165,62.519],[-114.902,62.466],[-114.714,62.376],[-114.437,62.373],[-114.284,62.413],[-114.227,62.385],[-114.247,62.326],[-114.224,62.312],[-114.023,62.268],[-113.574,62.019],[-113.309,62.005],[-113.037,62.019],[-112.923,62.073],[-112.892,62.037],[-112.529,62.074],[-112.302,62.134],[-111.78,62.368],[-111.393,62.722],[-111.081,62.835],[-110.673,62.927],[-110.056,62.952],[-109.022,62.807]],[[-111.745,62.081],[-111.668,62.123],[-111.828,62.113],[-112.071,61.974],[-112.306,61.916],[-113.011,61.809],[-112.92,61.762],[-112.754,61.764],[-112.73,61.65],[-112.69,61.605],[-112.596,61.584],[-112.455,61.605],[-112.331,61.65],[-112.137,61.837],[-111.787,62.002],[-111.745,62.081]]]}},{"type":"Feature","properties":{"name":"Lake Ontario"},"geometry":{"type":"Polygon","coordinates":[[[-75.787,44.484],[-75.776,44.459],[-75.832,44.397],[-76.352,44.106],[-76.281,44.046],[-76.173,44.079],[-76.154,44.045],[-76.192,44.003],[-76.071,43.998],[-76.198,43.874],[-76.223,43.864],[-76.233,43.895],[-76.285,43.869],[-76.218,43.758],[-76.203,43.575],[-76.473,43.507],[-76.722,43.343],[-76.885,43.314],[-76.95,43.268],[-77.271,43.295],[-77.529,43.267],[-77.838,43.357],[-78.175,43.395],[-78.689,43.361],[-79.338,43.198],[-79.728,43.253],[-79.773,43.301],[-79.569,43.578],[-79.303,43.69],[-79.061,43.835],[-77.726,44.009],[-77.682,44.045],[-77.549,44.025],[-77.568,44.008],[-77.503,43.963],[-77.259,43.964],[-77.311,43.952],[-77.267,43.922],[-77.19,43.948],[-77.208,43.876],[-77.054,43.883],[-76.879,43.943],[-76.87,43.965],[-77.042,43.943],[-77.024,43.987],[-76.863,44.1],[-77.103,44.046],[-77.117,44.079],[-77.083,44.148],[-77.115,44.173],[-77.271,44.139],[-77.296,44.098],[-77.332,44.104],[-77.333,44.153],[-77.586,44.084],[-77.547,44.124],[-77.326,44.178],[-77.059,44.205],[-77.02,44.197],[-77.033,44.156],[-77.01,44.153],[-76.913,44.198],[-77.055,44.106],[-77.041,44.071],[-76.992,44.074],[-76.688,44.218],[-76.408,44.262],[-75.942,44.411],[-75.831,44.49],[-75.787,44.484]],[[-76.688,44.138],[-76.64,44.181],[-76.799,44.155],[-76.787,44.13],[-76.688,44.138]],[[-76.275,44.009],[-76.277,43.987],[-76.231,44.018],[-76.275,44.009]],[[-76.237,44.233],[-76.227,44.254],[-76.43,44.227],[-76.483,44.179],[-76.485,44.128],[-76.423,44.122],[-76.33,44.208],[-76.237,44.233]],[[-76.081,44.295],[-76.119,44.306],[-76.143,44.269],[-76.081,44.295]]]}},{"type":"Feature","properties":{"name":"Great Bear Lake"},"geometry":{"type":"Polygon","coordinates":[[[-117.842,66.424],[-117.542,66.483],[-117.514,66.46],[-117.674,66.336],[-117.68,66.253],[-117.987,66.105],[-117.907,66.067],[-117.924,66.044],[-118.073,66.036],[-118.199,65.905],[-118.209,65.856],[-118.157,65.831],[-117.846,65.84],[-117.943,65.723],[-118.264,65.67],[-118.453,65.683],[-118.569,65.644],[-118.944,65.784],[-119.619,65.782],[-119.705,65.752],[-119.698,65.714],[-119.974,65.617],[-119.988,65.586],[-119.541,65.408],[-119.509,65.368],[-119.885,65.325],[-120.159,65.176],[-121.073,64.9],[-121.23,64.827],[-121.367,64.834],[-121.471,64.879],[-121.48,64.933],[-121.089,65.004],[-121.003,65.038],[-120.991,65.082],[-120.55,65.289],[-120.406,65.411],[-120.368,65.509],[-120.383,65.557],[-120.663,65.605],[-120.978,65.553],[-121.368,65.435],[-121.548,65.364],[-121.606,65.229],[-121.615,65.093],[-122.04,64.961],[-123.446,65.116],[-123.472,65.152],[-123.444,65.185],[-122.853,65.278],[-122.767,65.342],[-122.769,65.409],[-122.887,65.487],[-122.374,65.657],[-122.206,65.753],[-122.164,65.817],[-122.531,65.944],[-122.549,65.986],[-122.387,66.007],[-121.772,65.948],[-121.475,65.957],[-121.293,66.001],[-121.249,66.054],[-121.278,66.092],[-122.11,66.234],[-123.016,66.255],[-122.993,66.173],[-123.116,66.054],[-123.198,66.104],[-123.396,66.135],[-124.499,66.153],[-124.59,66.11],[-124.59,66.016],[-124.732,66.04],[-124.817,65.941],[-124.963,66.01],[-125.09,66.157],[-125.063,66.248],[-124.525,66.276],[-123.56,66.427],[-123.177,66.517],[-123.088,66.473],[-122.844,66.533],[-122.529,66.56],[-122.523,66.599],[-122.344,66.583],[-121.98,66.636],[-121.528,66.719],[-121.233,66.832],[-119.878,67.029],[-119.097,66.909],[-119.252,66.829],[-119.568,66.746],[-120.084,66.654],[-120.13,66.6],[-120.33,66.537],[-120.325,66.47],[-120.478,66.422],[-120.445,66.395],[-120.016,66.38],[-119.722,66.311],[-119.489,66.338],[-118.756,66.331],[-118.337,66.399],[-118.192,66.515],[-118.004,66.601],[-117.696,66.658],[-117.691,66.596],[-117.864,66.461],[-117.842,66.424]]]}},{"type":"Feature","properties":{"name":"Lake Saint Clair"},"geometry":{"type":"Polygon","coordinates":[[[-83.076,42.275],[-83.105,42.286],[-83.063,42.323],[-82.902,42.394],[-82.87,42.519],[-82.784,42.613],[-82.804,42.639],[-82.733,42.69],[-82.65,42.687],[-82.613,42.525],[-82.432,42.498],[-82.418,42.472],[-82.428,42.367],[-82.516,42.322],[-82.971,42.327],[-83.076,42.275]]]}},{"type":"Feature","properties":{"name":"Lake Okeechobee"},"geometry":{"type":"Polygon","coordinates":[[[-80.629,26.887],[-80.743,26.697],[-80.784,26.691],[-80.896,26.752],[-81.081,26.956],[-80.87,27.147],[-80.759,27.182],[-80.654,27.054],[-80.629,26.887]]]}},{"type":"Feature","properties":{"name":"Lago de Nicaragua"},"geometry":{"type":"Polygon","coordinates":[[[-84.814,11.26],[-84.769,11.118],[-84.803,11.065],[-84.897,11.035],[-85.411,11.174],[-85.684,11.317],[-85.899,11.702],[-85.912,12.003],[-85.871,12.098],[-85.798,12.107],[-85.676,12.064],[-85.259,11.783],[-85.009,11.527],[-84.814,11.26]]]}},{"type":"Feature","properties":{"name":"Cedar Lake"},"geometry":{"type":"Polygon","coordinates":[[[-99.349,53.199],[-99.33,53.159],[-99.459,53.053],[-99.539,53.067],[-99.538,53.097],[-99.644,53.183],[-99.685,53.14],[-99.972,53.098],[-100.2,53.152],[-100.891,53.471],[-100.855,53.501],[-100.604,53.498],[-100.632,53.554],[-100.591,53.572],[-100.323,53.593],[-100.324,53.669],[-100.432,53.79],[-100.33,53.865],[-100.347,53.898],[-100.498,53.905],[-100.483,53.95],[-100.303,53.973],[-100.306,54.098],[-100.358,54.202],[-100.122,54.246],[-99.994,54.192],[-99.882,54.192],[-100.226,54.015],[-100.105,53.971],[-100.094,53.941],[-100.151,53.861],[-100.118,53.837],[-99.963,53.876],[-99.66,54.034],[-99.604,54.027],[-99.776,53.835],[-99.908,53.827],[-99.926,53.76],[-100.215,53.646],[-99.976,53.491],[-99.929,53.407],[-99.94,53.332],[-99.872,53.248],[-99.437,53.337],[-99.349,53.199]]]}},{"type":"Feature","properties":{"name":"Great Salt Lake"},"geometry":{"type":"Polygon","coordinates":[[[-111.974,41.002],[-111.961,40.942],[-112.097,40.881],[-112.19,40.769],[-112.37,40.701],[-112.478,40.943],[-112.546,40.839],[-112.58,40.849],[-112.728,41.019],[-112.814,41.224],[-112.985,41.427],[-112.999,41.612],[-112.742,41.659],[-112.707,41.603],[-112.738,41.537],[-112.604,41.431],[-112.527,41.421],[-112.437,41.219],[-112.377,41.232],[-112.402,41.432],[-112.374,41.457],[-112.243,41.393],[-112.064,41.4],[-112.076,41.347],[-112.241,41.345],[-112.304,41.283],[-112.083,41.065],[-111.974,41.002]],[[-112.171,40.875],[-112.156,40.956],[-112.198,41.056],[-112.236,41.069],[-112.263,41.058],[-112.25,40.964],[-112.171,40.875]]]}},{"type":"Feature","properties":{"name":"Lake Michigan"},"geometry":{"type":"Polygon","coordinates":[[[-84.763,45.792],[-84.981,45.767],[-84.955,45.743],[-84.977,45.707],[-85.088,45.605],[-85.088,45.507],[-84.93,45.413],[-85.223,45.356],[-85.376,45.277],[-85.389,45.033],[-85.549,44.772],[-85.489,44.97],[-85.494,44.994],[-85.534,44.976],[-85.559,44.873],[-85.623,44.804],[-85.645,44.882],[-85.605,44.97],[-85.588,45.161],[-85.556,45.196],[-85.617,45.193],[-85.858,44.962],[-85.91,44.976],[-86.058,44.916],[-86.126,44.748],[-86.259,44.699],[-86.242,44.551],[-86.296,44.331],[-86.519,44.074],[-86.449,43.924],[-86.438,43.813],[-86.541,43.657],[-86.301,43.158],[-86.222,42.9],[-86.26,42.531],[-86.407,42.224],[-86.632,41.911],[-86.798,41.789],[-87.159,41.646],[-87.356,41.643],[-87.515,41.721],[-87.695,42.084],[-87.797,42.211],[-87.812,42.543],[-87.781,42.753],[-87.888,43.012],[-87.902,43.245],[-87.801,43.538],[-87.7,43.724],[-87.729,43.851],[-87.7,43.977],[-87.603,44.125],[-87.535,44.174],[-87.512,44.23],[-87.527,44.386],[-87.337,44.776],[-87.42,44.866],[-87.604,44.847],[-87.788,44.652],[-87.969,44.552],[-88.019,44.571],[-88.028,44.618],[-87.952,44.764],[-87.83,44.942],[-87.627,45.032],[-87.593,45.178],[-87.114,45.692],[-86.982,45.917],[-86.993,45.79],[-86.938,45.7],[-86.754,45.859],[-86.563,45.883],[-86.559,45.806],[-86.691,45.701],[-86.69,45.657],[-86.622,45.623],[-86.601,45.682],[-86.351,45.831],[-86.272,45.937],[-86.123,45.969],[-85.914,45.941],[-85.615,46.02],[-85.479,46.108],[-85.386,46.109],[-84.972,45.989],[-84.757,45.863],[-84.763,45.792]],[[-85.492,45.76],[-85.539,45.775],[-85.573,45.738],[-85.612,45.609],[-85.509,45.624],[-85.492,45.76]],[[-86.052,45.156],[-86.038,45.103],[-85.988,45.088],[-85.98,45.132],[-86.052,45.156]],[[-86.926,45.415],[-86.967,45.368],[-86.947,45.346],[-86.862,45.352],[-86.857,45.394],[-86.926,45.415]],[[-87.049,45.303],[-87.259,45.138],[-87.396,44.954],[-87.355,44.839],[-87.28,44.835],[-87.188,44.922],[-87.141,45.041],[-87.059,45.102],[-87.086,45.145],[-87.057,45.151],[-87.042,45.237],[-87.01,45.228],[-86.986,45.275],[-87.049,45.303]]]}},{"type":"Feature","properties":{"name":"Lake Superior"},"geometry":{"type":"Polygon","coordinates":[[[-84.432,46.522],[-84.344,46.531],[-84.528,46.436],[-84.635,46.482],[-84.851,46.469],[-85.034,46.506],[-85.015,46.686],[-84.968,46.771],[-85.015,46.783],[-85.616,46.691],[-86.132,46.687],[-86.403,46.588],[-86.637,46.453],[-86.733,46.49],[-86.914,46.483],[-87.034,46.543],[-87.171,46.514],[-87.358,46.524],[-87.637,46.827],[-87.778,46.888],[-88.216,46.952],[-88.383,46.874],[-88.449,46.802],[-88.476,46.837],[-88.466,47.013],[-88.543,47.122],[-88.633,47.167],[-88.65,47.232],[-88.83,47.146],[-88.948,47.043],[-89.155,46.989],[-89.355,46.882],[-89.695,46.839],[-90.154,46.654],[-90.469,46.584],[-90.737,46.689],[-90.77,46.645],[-90.944,46.619],[-90.768,46.908],[-90.84,46.962],[-90.946,46.954],[-91.127,46.868],[-91.203,46.888],[-91.499,46.766],[-91.836,46.702],[-91.987,46.699],[-92.107,46.762],[-92.065,46.819],[-91.645,47.05],[-90.847,47.585],[-90.597,47.688],[-89.829,47.901],[-89.345,48.121],[-89.221,48.311],[-89.201,48.451],[-88.775,48.583],[-88.876,48.381],[-88.933,48.335],[-88.734,48.384],[-88.625,48.599],[-88.55,48.658],[-88.503,48.833],[-88.395,48.845],[-88.352,48.821],[-88.323,48.738],[-88.567,48.528],[-88.585,48.492],[-88.559,48.447],[-88.501,48.467],[-88.444,48.56],[-88.248,48.596],[-88.138,48.683],[-88.109,48.776],[-88.224,48.867],[-88.264,48.974],[-88.07,49.001],[-87.224,48.776],[-86.82,48.773],[-86.693,48.808],[-86.581,48.753],[-86.432,48.758],[-86.283,48.598],[-86.104,48.21],[-85.914,48.03],[-85.615,47.941],[-84.855,47.95],[-85.014,47.639],[-84.936,47.54],[-84.716,47.427],[-84.594,47.32],[-84.72,47.142],[-84.775,47.004],[-84.625,46.922],[-84.488,46.944],[-84.385,46.906],[-84.382,46.853],[-84.485,46.848],[-84.553,46.806],[-84.54,46.697],[-84.488,46.744],[-84.438,46.723],[-84.568,46.543],[-84.501,46.483],[-84.432,46.522]],[[-90.756,46.965],[-90.761,46.937],[-90.723,46.92],[-90.713,46.941],[-90.756,46.965]],[[-90.653,46.828],[-90.589,46.855],[-90.619,46.87],[-90.792,46.772],[-90.653,46.828]],[[-90.547,46.919],[-90.535,46.954],[-90.65,46.937],[-90.547,46.919]],[[-90.41,47.044],[-90.447,47.066],[-90.472,47.018],[-90.41,47.044]],[[-88.057,48.837],[-88.087,48.808],[-88.057,48.717],[-87.816,48.768],[-87.765,48.841],[-87.915,48.865],[-88.057,48.837]],[[-88.911,47.936],[-88.625,48.042],[-88.581,48.111],[-88.485,48.167],[-88.588,48.158],[-89.147,47.953],[-89.193,47.929],[-89.169,47.917],[-89.195,47.852],[-88.97,47.881],[-88.911,47.936]],[[-87.79,47.411],[-87.741,47.434],[-87.878,47.484],[-88.11,47.473],[-88.32,47.421],[-88.562,47.272],[-88.616,47.174],[-88.434,47.122],[-88.454,47.152],[-88.417,47.191],[-88.409,47.131],[-88.469,47.048],[-88.439,47.011],[-88.402,47.019],[-88.237,47.159],[-88.222,47.211],[-87.975,47.355],[-88.027,47.386],[-87.79,47.411]],[[-87.69,48.75],[-87.622,48.757],[-87.626,48.78],[-87.731,48.84],[-87.744,48.764],[-87.69,48.75]],[[-85.606,47.742],[-85.641,47.782],[-85.765,47.807],[-85.883,47.791],[-85.951,47.747],[-85.859,47.719],[-85.606,47.742]]]}},{"type":"Feature","properties":{"name":"Lake Huron"},"geometry":{"type":"Polygon","coordinates":[[[-84.344,46.531],[-84.165,46.563],[-84.087,46.507],[-84.092,46.361],[-83.459,46.238],[-83.025,46.181],[-82.719,46.207],[-82.638,46.172],[-82.35,46.193],[-82.196,46.134],[-81.769,46.104],[-81.75,46.057],[-81.615,46.119],[-81.545,46.09],[-81.64,46.04],[-81.597,46.012],[-81.627,45.978],[-81.597,45.967],[-81.449,45.994],[-81.237,45.974],[-81.174,46.016],[-81.16,45.955],[-81.097,45.942],[-80.818,45.951],[-80.511,45.59],[-80.444,45.584],[-80.429,45.625],[-80.389,45.574],[-80.385,45.458],[-80.35,45.399],[-80.177,45.344],[-80.185,45.387],[-80.145,45.399],[-80.057,45.375],[-80.05,45.301],[-80.121,45.223],[-80.049,45.204],[-80.006,45.153],[-80.083,45.126],[-79.929,44.974],[-79.828,44.936],[-79.772,44.819],[-79.696,44.875],[-79.709,44.791],[-79.678,44.769],[-79.827,44.768],[-79.925,44.813],[-79.92,44.855],[-80.108,44.807],[-79.997,44.652],[-80.008,44.572],[-80.085,44.489],[-80.46,44.578],[-80.593,44.639],[-80.67,44.727],[-80.79,44.7],[-80.91,44.618],[-80.895,44.781],[-80.963,44.809],[-81.13,44.77],[-81.006,44.876],[-80.966,44.959],[-81.134,44.918],[-81.138,44.968],[-81.26,45.028],[-81.313,45.156],[-81.285,45.241],[-81.697,45.251],[-81.706,45.223],[-81.59,45.166],[-81.451,45.015],[-81.355,44.978],[-81.358,44.911],[-81.278,44.79],[-81.278,44.644],[-81.402,44.461],[-81.565,44.36],[-81.708,44.131],[-81.732,44.06],[-81.713,43.474],[-81.785,43.327],[-82.181,43.085],[-82.417,43.017],[-82.461,43.081],[-82.663,43.854],[-82.716,43.939],[-82.878,44.048],[-82.995,44.061],[-83.383,43.924],[-83.353,43.879],[-83.469,43.731],[-83.573,43.697],[-83.668,43.621],[-83.848,43.664],[-83.938,43.738],[-83.879,43.963],[-83.614,44.058],[-83.512,44.271],[-83.366,44.33],[-83.331,44.375],[-83.3,44.785],[-83.328,44.869],[-83.452,44.992],[-83.426,45.059],[-83.293,45.04],[-83.331,45.164],[-83.396,45.221],[-83.397,45.274],[-83.479,45.339],[-83.918,45.486],[-84.073,45.509],[-84.242,45.644],[-84.441,45.676],[-84.763,45.792],[-84.675,46.033],[-84.632,46.053],[-84.49,45.994],[-83.979,45.962],[-83.901,45.981],[-83.917,46.021],[-84.041,46.088],[-84.055,46.159],[-84.248,46.203],[-84.202,46.283],[-84.255,46.408],[-84.358,46.505],[-84.344,46.531]],[[-83.345,45.993],[-83.437,45.963],[-83.48,45.907],[-83.387,45.869],[-83.332,45.88],[-83.269,45.947],[-83.345,45.993]],[[-83.529,46.024],[-83.608,46.097],[-83.684,46.106],[-83.715,46.038],[-83.871,46.017],[-83.875,45.991],[-83.823,45.956],[-83.588,45.941],[-83.494,45.991],[-83.529,46.024]],[[-83.829,46.148],[-83.795,46.214],[-83.822,46.253],[-83.971,46.303],[-84.097,46.288],[-83.979,46.109],[-83.907,46.097],[-83.876,46.148],[-83.829,46.148]],[[-84.169,46.324],[-84.196,46.303],[-84.135,46.24],[-84.12,46.285],[-84.169,46.324]],[[-84.133,46.341],[-84.164,46.41],[-84.142,46.531],[-84.216,46.536],[-84.274,46.488],[-84.189,46.36],[-84.133,46.341]],[[-84.429,45.807],[-84.557,45.82],[-84.441,45.734],[-84.375,45.765],[-84.429,45.807]],[[-82.962,45.833],[-82.323,45.684],[-82.055,45.561],[-81.821,45.692],[-81.76,45.698],[-81.865,45.611],[-81.977,45.57],[-81.881,45.535],[-81.755,45.591],[-81.593,45.792],[-81.685,45.801],[-81.665,45.872],[-81.698,45.894],[-81.796,45.74],[-81.838,45.788],[-81.841,45.885],[-81.879,45.892],[-81.939,45.979],[-82.055,45.955],[-82.143,45.869],[-82.332,45.982],[-82.527,45.939],[-82.58,45.896],[-82.52,45.849],[-82.531,45.806],[-82.66,45.86],[-82.765,45.858],[-82.823,45.91],[-82.845,45.99],[-83.097,45.935],[-83.176,45.969],[-83.216,45.933],[-83.222,45.902],[-83.16,45.875],[-82.962,45.833]],[[-81.713,45.526],[-81.829,45.498],[-81.833,45.473],[-81.788,45.466],[-81.713,45.526]],[[-80.173,44.796],[-80.171,44.865],[-80.236,44.865],[-80.173,44.796]]]}},{"type":"Feature","properties":{"name":"Lago Madre"},"geometry":{"type":"Polygon","coordinates":[[[-97.427,25.354],[-97.537,25.082],[-97.687,24.476],[-97.758,23.915],[-97.775,24.082],[-97.741,24.391],[-97.805,24.444],[-97.833,24.517],[-97.8,24.546],[-97.742,24.502],[-97.689,24.663],[-97.703,24.845],[-97.643,24.908],[-97.729,24.994],[-97.7,25.201],[-97.754,25.257],[-97.654,25.365],[-97.543,25.312],[-97.518,25.435],[-97.473,25.44],[-97.427,25.354]]]}},{"type":"Feature","properties":{"name":"Wollaston Lake"},"geometry":{"type":"Polygon","coordinates":[[[-102.837,58.33],[-102.982,58.275],[-103.001,58.243],[-102.941,58.173],[-103.259,58.053],[-103.281,57.897],[-103.218,57.844],[-103.269,57.738],[-103.33,57.697],[-103.36,57.695],[-103.306,57.778],[-103.314,57.828],[-103.359,57.861],[-103.559,57.869],[-103.829,57.779],[-103.656,57.919],[-103.803,57.947],[-103.673,58.037],[-103.706,58.127],[-103.613,58.267],[-103.662,58.284],[-103.61,58.409],[-103.55,58.455],[-103.384,58.432],[-103.239,58.472],[-103.185,58.552],[-102.952,58.533],[-102.921,58.477],[-102.803,58.412],[-102.791,58.381],[-102.837,58.33]]]}},{"type":"Feature","properties":{"name":"Lake Athabasca"},"geometry":{"type":"Polygon","coordinates":[[[-109.233,59.127],[-110.074,58.949],[-110.403,58.768],[-110.44,58.716],[-110.37,58.676],[-110.376,58.644],[-110.747,58.614],[-110.812,58.512],[-110.839,58.511],[-110.877,58.629],[-110.903,58.631],[-110.99,58.594],[-111.075,58.505],[-111.107,58.547],[-111.098,58.616],[-111.262,58.703],[-111.301,58.756],[-111.28,58.788],[-111.15,58.775],[-111.161,58.739],[-111.125,58.735],[-111.019,58.764],[-110.483,59.11],[-109.875,59.357],[-109.623,59.543],[-109.398,59.597],[-109.172,59.587],[-109.036,59.498],[-108.795,59.504],[-108.857,59.387],[-108.219,59.473],[-107.239,59.348],[-106.021,59.29],[-106.042,59.252],[-106.71,59.263],[-107.589,59.292],[-107.626,59.331],[-107.708,59.34],[-107.837,59.216],[-108.211,59.161],[-109.103,59.098],[-109.233,59.127]]]}},{"type":"Feature","properties":{"name":"Lake Mistassini"},"geometry":{"type":"Polygon","coordinates":[[[-72.9,51.146],[-73.459,50.793],[-73.394,50.893],[-73.132,51.09],[-73.173,51.158],[-73.573,50.835],[-73.631,50.824],[-73.8,50.595],[-73.817,50.499],[-73.788,50.39],[-73.832,50.413],[-73.837,50.341],[-73.8,50.236],[-73.818,50.211],[-74.008,50.12],[-74.076,50.043],[-74.22,50.058],[-74.098,50.092],[-74.013,50.178],[-73.828,50.249],[-73.899,50.352],[-73.839,50.639],[-73.916,50.544],[-73.932,50.458],[-74.002,50.478],[-74.132,50.403],[-73.845,50.888],[-73.911,50.897],[-73.892,50.981],[-73.641,51.078],[-73.067,51.39],[-72.986,51.397],[-73.067,51.317],[-73.04,51.309],[-72.792,51.353],[-73.067,51.206],[-73.092,51.178],[-73.072,51.16],[-72.811,51.244],[-72.69,51.241],[-72.9,51.146]]]}},{"type":"Feature","properties":{"name":"Lake of the Woods"},"geometry":{"type":"Polygon","coordinates":[[[-94.052,49.373],[-94.047,49.268],[-94.119,49.206],[-94.109,49.263],[-94.221,49.394],[-94.278,49.407],[-94.251,49.457],[-94.365,49.483],[-94.646,49.445],[-94.745,49.409],[-94.79,49.353],[-94.64,49.354],[-94.464,49.232],[-94.354,49.266],[-94.24,49.181],[-94.074,49.155],[-94.197,49.096],[-94.31,49.104],[-94.324,49.071],[-94.713,48.863],[-94.818,48.868],[-95.003,48.964],[-95.179,48.897],[-95.274,48.886],[-95.313,48.928],[-95.261,49.137],[-94.983,49.195],[-94.936,49.24],[-94.941,49.321],[-95.014,49.368],[-94.645,49.603],[-94.745,49.616],[-95.107,49.463],[-95.139,49.472],[-95.116,49.543],[-95.152,49.622],[-95.008,49.635],[-94.962,49.621],[-94.973,49.584],[-94.926,49.576],[-94.84,49.613],[-94.87,49.663],[-94.823,49.69],[-94.588,49.724],[-94.56,49.764],[-94.576,49.807],[-94.678,49.953],[-94.615,49.993],[-94.539,49.931],[-94.53,49.853],[-94.451,49.738],[-94.346,49.724],[-94.312,49.685],[-94.314,49.6],[-94.362,49.576],[-94.302,49.515],[-94.173,49.497],[-94.144,49.427],[-94.052,49.373]],[[-94.702,49.191],[-94.787,49.192],[-94.731,49.092],[-94.657,49.09],[-94.594,49.036],[-94.528,49.041],[-94.446,49.179],[-94.515,49.215],[-94.702,49.191]]]}},{"type":"Feature","properties":{"name":"Lake Nipigon"},"geometry":{"type":"Polygon","coordinates":[[[-88.03,49.961],[-88.145,49.912],[-88.108,49.868],[-88.112,49.711],[-88.18,49.466],[-88.305,49.459],[-88.406,49.389],[-88.439,49.394],[-88.542,49.549],[-88.563,49.462],[-88.622,49.428],[-88.773,49.458],[-88.786,49.488],[-88.71,49.587],[-88.59,49.608],[-88.607,49.647],[-88.744,49.631],[-88.823,49.54],[-88.96,49.501],[-89.019,49.568],[-88.907,49.579],[-88.93,49.755],[-89.008,49.714],[-89.092,49.776],[-89.069,49.824],[-89.004,49.787],[-88.949,49.81],[-88.945,49.88],[-88.888,49.933],[-88.893,50.057],[-88.769,50.213],[-88.639,50.277],[-88.465,50.238],[-88.288,50.15],[-88.421,50.289],[-88.344,50.275],[-88.199,50.188],[-88.171,50.135],[-88.204,50.111],[-88.235,49.991],[-88.133,50.035],[-88.03,49.961]],[[-88.554,50.022],[-88.616,50.047],[-88.654,49.95],[-88.747,49.879],[-88.588,49.805],[-88.636,49.897],[-88.625,49.951],[-88.554,50.022]],[[-88.385,49.647],[-88.393,49.7],[-88.489,49.66],[-88.49,49.612],[-88.399,49.617],[-88.385,49.647]]]}},{"type":"Feature","properties":{"name":"Reindeer Lake"},"geometry":{"type":"Polygon","coordinates":[[[-101.724,57.91],[-101.544,57.92],[-101.543,57.816],[-101.828,57.579],[-102.048,57.484],[-102.106,57.427],[-102.094,57.368],[-101.836,57.27],[-102.032,57.191],[-102.048,57.114],[-101.962,57.025],[-102.177,56.864],[-102.313,56.838],[-102.465,56.608],[-102.885,56.473],[-102.977,56.369],[-103.137,56.414],[-103.241,56.278],[-103.272,56.277],[-103.257,56.475],[-103.298,56.496],[-103.293,56.543],[-103.241,56.574],[-103.192,56.555],[-103.106,56.853],[-103.069,56.849],[-103.08,56.677],[-103.051,56.569],[-102.978,56.562],[-102.862,56.683],[-102.732,56.716],[-102.57,56.83],[-102.544,56.93],[-102.584,57.046],[-102.742,57.101],[-102.693,57.21],[-102.789,57.283],[-102.919,57.295],[-102.933,57.364],[-102.89,57.451],[-102.694,57.564],[-102.692,57.688],[-102.523,57.73],[-102.205,57.931],[-102.149,57.993],[-102.151,58.038],[-102.052,58.107],[-101.991,58.088],[-102.013,58.003],[-101.971,57.963],[-101.819,58.065],[-101.803,58.02],[-101.846,57.866],[-101.815,57.843],[-101.733,57.873],[-101.724,57.91]]]}},{"type":"Feature","properties":{"name":"Oneida Lake"},"geometry":{"type":"Polygon","coordinates":[[[-75.75,43.226],[-75.733,43.206],[-75.8,43.181],[-75.959,43.177],[-76.096,43.238],[-76.06,43.263],[-75.75,43.226]]]}},{"type":"Feature","properties":{"name":"Iliamna Lake"},"geometry":{"type":"Polygon","coordinates":[[[-153.971,59.769],[-154.534,59.628],[-154.614,59.451],[-155.743,59.335],[-155.881,59.377],[-155.914,59.456],[-155.846,59.538],[-154.993,59.705],[-154.328,59.791],[-153.971,59.769]]]}},{"type":"Feature","properties":{"name":null},"geometry":{"type":"Polygon","coordinates":[[[-155.961,57.87],[-156.021,57.837],[-155.993,57.763],[-156.04,57.705],[-156.159,57.633],[-156.115,57.749],[-156.161,57.797],[-156.678,57.888],[-156.832,57.931],[-156.884,57.999],[-156.817,58.067],[-156.638,58.086],[-156.279,58.006],[-155.976,57.909],[-155.961,57.87]]]}},{"type":"Feature","properties":{"name":"Lake Tahoe"},"geometry":{"type":"Polygon","coordinates":[[[-119.943,39.025],[-119.966,38.957],[-120.033,38.945],[-120.081,38.971],[-120.139,39.091],[-120.132,39.143],[-120.059,39.221],[-119.962,39.254],[-119.918,39.207],[-119.943,39.025]]]}},{"type":"Feature","properties":{"name":"Lake Winnebago"},"geometry":{"type":"Polygon","coordinates":[[[-88.325,44.068],[-88.334,43.938],[-88.431,43.808],[-88.465,43.813],[-88.519,44.029],[-88.484,44.11],[-88.418,44.195],[-88.358,44.196],[-88.321,44.18],[-88.325,44.068]]]}},{"type":"Feature","properties":{"name":"Nettilling Lake"},"geometry":{"type":"Polygon","coordinates":[[[-71.438,66.596],[-71.209,66.862],[-71.194,66.945],[-71.227,67.001],[-71.174,67.028],[-71.001,67.02],[-70.826,66.994],[-70.63,66.868],[-70.569,66.794],[-70.463,66.753],[-69.945,66.688],[-69.49,66.581],[-69.466,66.547],[-69.646,66.476],[-69.646,66.442],[-69.253,66.451],[-69.221,66.406],[-69.511,66.268],[-69.585,66.203],[-69.648,66.246],[-69.77,66.203],[-69.975,66.258],[-70.376,66.195],[-70.619,66.282],[-70.71,66.204],[-71.226,65.954],[-71.321,65.987],[-71.221,66.024],[-71.179,66.083],[-71.194,66.151],[-71.145,66.215],[-71.127,66.331],[-71.306,66.515],[-71.438,66.596]]]}},{"type":"Feature","properties":{"name":"Dubawnt Lake"},"geometry":{"type":"Polygon","coordinates":[[[-101.935,63.221],[-101.807,63.267],[-101.688,63.37],[-101.583,63.397],[-101.548,63.456],[-101.319,63.394],[-101.293,63.415],[-101.332,63.467],[-101.276,63.491],[-101.137,63.43],[-101.008,63.463],[-100.902,63.53],[-100.706,63.546],[-100.644,63.468],[-100.673,63.373],[-100.77,63.319],[-101.041,63.292],[-101.113,63.171],[-101.104,63.102],[-101.061,63.06],[-100.884,63.007],[-100.884,62.956],[-101.059,62.858],[-101.028,62.761],[-101.29,62.666],[-101.382,62.683],[-101.392,62.721],[-101.322,62.828],[-101.33,62.891],[-101.381,62.928],[-101.414,62.911],[-101.529,62.664],[-101.59,62.776],[-101.755,62.801],[-101.823,62.881],[-101.989,62.887],[-102.035,62.925],[-102.091,63.066],[-102.174,63.122],[-102.16,63.165],[-101.935,63.221]]]}},{"type":"Feature","properties":{"name":"Baker Lake"},"geometry":{"type":"Polygon","coordinates":[[[-94.626,64.159],[-94.247,64.124],[-94.225,64.076],[-94.312,64.012],[-94.455,63.996],[-94.86,64.066],[-95.784,64.056],[-96.227,64.193],[-96.273,64.301],[-96.203,64.325],[-95.251,64.274],[-94.65,64.197],[-94.626,64.159]]]}},{"type":"Feature","properties":{"name":"Lake Champlain"},"geometry":{"type":"Polygon","coordinates":[[[-73.373,44.148],[-73.405,44.054],[-73.368,43.757],[-73.451,44.083],[-73.444,44.193],[-73.354,44.281],[-73.444,44.638],[-73.347,45.018],[-73.324,45.029],[-73.296,44.914],[-73.147,45.073],[-73.104,45.078],[-73.111,45.009],[-73.193,44.957],[-73.173,44.919],[-73.214,44.586],[-73.263,44.542],[-73.228,44.445],[-73.373,44.148]]]}},{"type":"Feature","properties":{"name":"Salton Sea"},"geometry":{"type":"Polygon","coordinates":[[[-115.612,33.274],[-115.616,33.223],[-115.698,33.138],[-115.789,33.147],[-116.062,33.433],[-116.053,33.502],[-115.948,33.519],[-115.612,33.274]]]}},{"type":"Feature","properties":{"name":"Lac la Martre"},"geometry":{"type":"Polygon","coordinates":[[[-117.319,63.209],[-117.306,63.185],[-117.36,63.146],[-117.738,63.113],[-118.107,63.223],[-118.201,63.283],[-118.627,63.337],[-118.628,63.375],[-118.344,63.513],[-118.1,63.57],[-118.001,63.544],[-117.915,63.466],[-117.764,63.404],[-117.575,63.372],[-117.319,63.209]]]}},{"type":"Feature","properties":{"name":"Lac Saint-Jean"},"geometry":{"type":"Polygon","coordinates":[[[-72.055,48.454],[-72.165,48.481],[-72.306,48.619],[-72.331,48.669],[-72.291,48.733],[-72.158,48.755],[-72,48.724],[-71.776,48.61],[-71.781,48.518],[-71.823,48.475],[-71.924,48.444],[-72.055,48.454]]]}},{"type":"Feature","properties":{"name":"Keuka L."},"geometry":{"type":"Polygon","coordinates":[[[-77.058,42.644],[-77.107,42.521],[-77.191,42.425],[-77.148,42.568],[-77.113,42.569],[-77.058,42.644]]]}},{"type":"Feature","properties":{"name":"Seneca Lake"},"geometry":{"type":"Polygon","coordinates":[[[-76.879,42.416],[-76.91,42.459],[-76.97,42.878],[-76.882,42.683],[-76.879,42.416]]]}},{"type":"Feature","properties":{"name":"Cayuga Lake"},"geometry":{"type":"Polygon","coordinates":[[[-76.52,42.501],[-76.667,42.603],[-76.773,42.778],[-76.735,42.943],[-76.665,42.668],[-76.52,42.501]]]}},{"type":"Feature","properties":{"name":"Cree Lake"},"geometry":{"type":"Polygon","coordinates":[[[-106.258,57.696],[-106.11,57.655],[-106.095,57.465],[-106.14,57.414],[-106.541,57.326],[-106.804,57.356],[-106.97,57.254],[-107.079,57.224],[-107.083,57.361],[-107.028,57.426],[-107.064,57.457],[-106.924,57.462],[-106.655,57.597],[-106.422,57.649],[-106.316,57.705],[-106.258,57.696]]]}},{"type":"Feature","properties":{"name":null},"geometry":{"type":"Polygon","coordinates":[[[-99.606,62.959],[-99.298,63.187],[-99.332,63.1],[-99.304,63.048],[-99.159,62.991],[-99.142,62.929],[-99.386,62.817],[-99.73,62.819],[-99.762,62.848],[-99.764,62.873],[-99.606,62.959]]]}},{"type":"Feature","properties":{"name":"Kasba Lake"},"geometry":{"type":"Polygon","coordinates":[[[-102.549,60.322],[-102.485,60.314],[-102.315,60.424],[-102.437,60.5],[-102.434,60.585],[-102.261,60.649],[-101.886,60.238],[-101.849,60.112],[-101.885,59.983],[-101.983,60.01],[-102.023,59.929],[-102.275,60.211],[-102.382,60.25],[-102.588,60.246],[-102.6,60.309],[-102.549,60.322]]]}},{"type":"Feature","properties":{"name":null},"geometry":{"type":"Polygon","coordinates":[[[-90.425,30.274],[-90.467,30.198],[-90.574,30.197],[-90.557,30.284],[-90.493,30.348],[-90.433,30.326],[-90.425,30.274]]]}},{"type":"Feature","properties":{"name":"Lac-à-l'Eau-Claire"},"geometry":{"type":"Polygon","coordinates":[[[-73.99,56.026],[-74.07,55.975],[-74.249,55.938],[-74.276,55.951],[-74.231,55.985],[-74.336,56.024],[-74.732,56.091],[-74.8,56.137],[-74.819,56.273],[-74.664,56.336],[-74.477,56.318],[-74.312,56.262],[-74.248,56.161],[-74.054,56.137],[-73.985,56.097],[-73.99,56.026]]]}},{"type":"Feature","properties":{"name":"Lake Nipissing"},"geometry":{"type":"Polygon","coordinates":[[[-80.447,46.282],[-80.147,46.258],[-80.118,46.277],[-80.143,46.302],[-80.125,46.324],[-80.053,46.346],[-79.653,46.358],[-79.494,46.311],[-79.436,46.235],[-79.487,46.184],[-79.573,46.166],[-79.772,46.213],[-79.986,46.161],[-80.015,46.232],[-80.293,46.225],[-80.447,46.282]]]}},{"type":"Feature","properties":{"name":null},"geometry":{"type":"Polygon","coordinates":[[[-76.547,56.164],[-76.397,56.345],[-76.425,56.389],[-76.366,56.55],[-76.245,56.423],[-76.234,56.397],[-76.275,56.379],[-75.939,56.191],[-75.953,56.145],[-76.147,56.127],[-76.547,56.164]]]}},{"type":"Feature","properties":{"name":"Rés. de La Grande 3"},"geometry":{"type":"Polygon","coordinates":[[[-76.088,53.666],[-76.1,53.737],[-75.93,53.766],[-75.85,53.855],[-75.292,53.897],[-75.184,53.82],[-74.799,53.893],[-74.734,53.896],[-74.725,53.857],[-75.27,53.709],[-75.265,53.684],[-74.771,53.654],[-74.433,53.685],[-74.679,53.609],[-74.935,53.578],[-75.027,53.576],[-74.998,53.622],[-75.034,53.639],[-75.238,53.619],[-75.633,53.638],[-75.658,53.62],[-75.601,53.582],[-75.632,53.538],[-75.716,53.497],[-75.934,53.465],[-76.102,53.475],[-76.124,53.523],[-75.907,53.653],[-75.945,53.686],[-76.088,53.666]]]}},{"type":"Feature","properties":{"name":"Rés. de La Grande 2"},"geometry":{"type":"Polygon","coordinates":[[[-76.1,53.737],[-76.088,53.666],[-76.36,53.63],[-76.385,53.596],[-76.515,53.557],[-76.839,53.499],[-77.397,53.521],[-77.488,53.56],[-77.465,53.638],[-77.685,53.679],[-77.42,53.798],[-76.902,53.847],[-76.766,53.91],[-76.731,53.977],[-76.888,54.057],[-76.868,54.072],[-76.84,54.088],[-76.66,54.026],[-76.602,54.055],[-76.509,54.048],[-76.472,54.082],[-76.573,54.14],[-76.557,54.157],[-76.368,54.188],[-76.264,54.136],[-76.15,54.143],[-76.105,54.116],[-76.255,54.073],[-76.304,53.963],[-76.75,53.723],[-76.696,53.699],[-76.1,53.737]]]}},{"type":"Feature","properties":{"name":null},"geometry":{"type":"Polygon","coordinates":[[[-156.548,57.766],[-156.777,57.566],[-156.768,57.507],[-156.834,57.443],[-157.019,57.512],[-157.044,57.548],[-156.893,57.58],[-156.842,57.611],[-156.837,57.653],[-156.683,57.755],[-156.59,57.785],[-156.548,57.766]]]}},{"type":"Feature","properties":{"name":"Lago Enriquillo"},"geometry":{"type":"Polygon","coordinates":[[[-71.509,18.47],[-71.607,18.421],[-71.794,18.494],[-71.777,18.531],[-71.683,18.551],[-71.509,18.47]]]}},{"type":"Feature","properties":{"name":null},"geometry":{"type":"Polygon","coordinates":[[[-159.665,66.474],[-159.663,66.433],[-159.945,66.442],[-160.134,66.52],[-160.115,66.544],[-159.922,66.535],[-159.729,66.512],[-159.665,66.474]]]}},{"type":"Feature","properties":{"name":null},"geometry":{"type":"Polygon","coordinates":[[[-115.062,60.329],[-115.157,60.195],[-115.286,60.16],[-115.294,60.109],[-115.605,60.173],[-115.879,60.163],[-115.896,60.201],[-115.804,60.254],[-115.531,60.262],[-115.11,60.35],[-115.062,60.329]]]}},{"type":"Feature","properties":{"name":"Lake Sakami"},"geometry":{"type":"Polygon","coordinates":[[[-76.637,53.26],[-76.692,53.212],[-76.688,53.17],[-76.784,53.147],[-76.843,53.095],[-76.799,52.981],[-76.855,52.968],[-76.899,52.995],[-76.938,53.119],[-76.881,53.216],[-76.892,53.345],[-76.844,53.394],[-76.72,53.469],[-76.703,53.419],[-76.661,53.417],[-76.564,53.485],[-76.515,53.468],[-76.497,53.414],[-76.523,53.379],[-76.672,53.34],[-76.656,53.298],[-76.589,53.289],[-76.637,53.26]]]}},{"type":"Feature","properties":{"name":"Scott Lake"},"geometry":{"type":"Polygon","coordinates":[[[-105.959,59.998],[-106.073,59.959],[-106.055,59.845],[-106.104,59.809],[-106.167,59.808],[-106.237,59.862],[-106.278,59.813],[-106.338,59.805],[-106.375,59.831],[-106.326,59.935],[-106.332,60.022],[-106.407,60.064],[-106.308,60.101],[-106.195,60.021],[-106.122,60.144],[-106.019,60.192],[-105.873,60.228],[-105.704,60.184],[-105.77,60.131],[-106.028,60.111],[-106.069,60.083],[-106.046,60.05],[-105.88,60.038],[-105.875,60.006],[-105.959,59.998]]]}},{"type":"Feature","properties":{"name":null},"geometry":{"type":"Polygon","coordinates":[[[-89.522,52.883],[-89.283,53.006],[-89.123,52.966],[-88.952,52.988],[-89.044,52.87],[-89.522,52.883]]]}},{"type":"Feature","properties":{"name":"Yellowstone Lake"},"geometry":{"type":"Polygon","coordinates":[[[-110.199,44.335],[-110.273,44.319],[-110.394,44.391],[-110.39,44.425],[-110.426,44.447],[-110.531,44.414],[-110.555,44.447],[-110.327,44.567],[-110.272,44.544],[-110.264,44.447],[-110.202,44.391],[-110.199,44.335]]]}},{"type":"Feature","properties":{"name":"Teshekpuk Lake"},"geometry":{"type":"Polygon","coordinates":[[[-152.94,70.569],[-153.656,70.48],[-153.794,70.487],[-154.019,70.543],[-154.257,70.661],[-153.611,70.737],[-152.94,70.569]]]}},{"type":"Feature","properties":{"name":"Flathead Lake"},"geometry":{"type":"Polygon","coordinates":[[[-114.156,47.933],[-114.199,48.04],[-114.134,48.091],[-114.046,48.015],[-114.024,47.934],[-114.005,47.785],[-114.056,47.711],[-114.15,47.714],[-114.163,47.74],[-114.126,47.784],[-114.148,47.812],[-114.25,47.837],[-114.156,47.933]]]}},{"type":"Feature","properties":{"name":"Lake Mead"},"geometry":{"type":"Polygon","coordinates":[[[-113.636,35.831],[-113.795,36.01],[-113.989,36.165],[-114.039,36.163],[-114.11,36.032],[-114.208,36.006],[-114.294,36.03],[-114.373,36.1],[-114.451,36.079],[-114.504,36.106],[-114.64,36.106],[-114.741,36.014],[-114.812,36.075],[-114.816,36.121],[-114.432,36.237],[-114.387,36.483],[-114.336,36.519],[-114.37,36.209],[-114.295,36.11],[-114.226,36.05],[-114.159,36.077],[-114.03,36.245],[-113.996,36.244],[-113.777,36.048],[-113.636,35.831]]]}},{"type":"Feature","properties":{"name":"Lake Claire"},"geometry":{"type":"Polygon","coordinates":[[[-111.817,58.56],[-111.843,58.425],[-111.789,58.331],[-111.809,58.303],[-111.898,58.306],[-112.08,58.347],[-112.189,58.413],[-112.237,58.46],[-112.211,58.55],[-112.255,58.576],[-112.393,58.578],[-112.447,58.618],[-112.431,58.683],[-112.337,58.778],[-112.154,58.825],[-112.041,58.819],[-112.037,58.787],[-112.113,58.778],[-112.119,58.736],[-111.844,58.721],[-111.731,58.686],[-111.717,58.659],[-111.817,58.56]]]}},{"type":"Feature","properties":{"name":"Smallwood Reservoir"},"geometry":{"type":"Polygon","coordinates":[[[-63.176,54.129],[-63.203,54.074],[-63.104,54.004],[-63.137,53.973],[-63.2,53.956],[-63.555,54.006],[-63.568,53.982],[-63.529,53.929],[-63.703,53.918],[-63.827,53.858],[-64.124,53.896],[-64.176,54.012],[-64.495,54.079],[-64.564,54.125],[-64.652,54.114],[-64.688,54.081],[-64.642,54.031],[-64.694,53.961],[-65.014,53.888],[-65.298,53.76],[-65.295,53.724],[-65.191,53.674],[-65.148,53.564],[-65.164,53.54],[-65.128,53.5],[-64.973,53.455],[-65.02,53.421],[-65.529,53.49],[-65.583,53.542],[-65.388,53.559],[-65.317,53.605],[-65.381,53.715],[-65.328,53.821],[-65.338,53.879],[-65.507,53.95],[-65.583,54.061],[-65.826,54.135],[-66.254,54.426],[-66.276,54.478],[-66.364,54.541],[-66.44,54.562],[-66.349,54.424],[-66.406,54.338],[-66.324,54.154],[-66.382,54.164],[-66.491,54.273],[-66.616,54.521],[-66.621,54.623],[-66.508,54.654],[-66.529,54.77],[-66.509,54.802],[-66.6,54.922],[-66.567,54.958],[-66.598,55.029],[-66.532,55.1],[-66.345,54.979],[-66.351,54.914],[-66.42,54.901],[-66.399,54.853],[-66.429,54.813],[-66.354,54.687],[-66.2,54.577],[-66.191,54.476],[-65.938,54.271],[-65.872,54.281],[-65.791,54.202],[-65.682,54.176],[-65.4,54.007],[-65.345,54.043],[-65.192,53.993],[-65.103,54.012],[-65.178,54.075],[-65.13,54.083],[-64.864,54.053],[-64.816,54.076],[-65.011,54.224],[-65.165,54.435],[-65.305,54.46],[-65.271,54.608],[-65.224,54.65],[-65.135,54.638],[-65.218,54.557],[-65.14,54.511],[-64.96,54.303],[-64.97,54.236],[-64.883,54.148],[-64.68,54.143],[-64.51,54.189],[-64.219,54.178],[-64.325,54.273],[-64.464,54.253],[-64.48,54.273],[-64.425,54.332],[-64.366,54.615],[-64.416,54.737],[-64.296,54.659],[-64.32,54.517],[-64.138,54.35],[-63.748,54.096],[-63.584,54.078],[-63.373,54.14],[-63.176,54.129]]]}},{"type":"Feature","properties":{"name":"Lago de Izabal"},"geometry":{"type":"Polygon","coordinates":[[[-88.878,15.712],[-88.97,15.636],[-89.022,15.489],[-89.079,15.444],[-89.301,15.382],[-89.388,15.488],[-89.105,15.602],[-88.862,15.764],[-88.878,15.712]]]}},{"type":"Feature","properties":{"name":"Lake St. Joseph"},"geometry":{"type":"Polygon","coordinates":[[[-91.345,50.969],[-91.274,51.069],[-90.976,51.011],[-90.604,51.215],[-90.472,51.17],[-90.427,51.119],[-90.937,50.954],[-91.318,50.918],[-91.367,50.93],[-91.345,50.969]]]}},{"type":"Feature","properties":{"name":"Réservoir Gouin"},"geometry":{"type":"Polygon","coordinates":[[[-74.531,48.461],[-74.677,48.364],[-74.867,48.56],[-74.945,48.576],[-74.969,48.519],[-74.942,48.487],[-74.954,48.38],[-75.082,48.341],[-75.13,48.288],[-75.099,48.478],[-75.008,48.564],[-75.018,48.612],[-75.165,48.526],[-75.174,48.414],[-75.414,48.438],[-75.282,48.597],[-75.181,48.602],[-75.061,48.706],[-74.97,48.694],[-74.723,48.785],[-74.558,48.802],[-74.522,48.756],[-74.58,48.64],[-74.555,48.608],[-74.412,48.589],[-74.37,48.486],[-74.1,48.372],[-74.237,48.347],[-74.463,48.471],[-74.531,48.461]]]}},{"type":"Feature","properties":{"name":"Lake Bienville"},"geometry":{"type":"Polygon","coordinates":[[[-73.182,55.098],[-72.923,55.18],[-72.225,55.281],[-72.281,55.226],[-72.29,55.166],[-72.358,55.126],[-72.706,55.01],[-73.045,54.946],[-73.213,54.968],[-73.555,54.903],[-73.604,54.927],[-73.409,54.987],[-73.514,55.034],[-73.491,55.056],[-73.365,55.048],[-73.182,55.098]]]}},{"type":"Feature","properties":{"name":"Canandaigua Lake"},"geometry":{"type":"Polygon","coordinates":[[[-77.262,42.815],[-77.354,42.689],[-77.361,42.734],[-77.271,42.895],[-77.245,42.876],[-77.262,42.815]]]}},{"type":"Feature","properties":{"name":"Owasco Lake"},"geometry":{"type":"Polygon","coordinates":[[[-76.479,42.77],[-76.527,42.836],[-76.536,42.922],[-76.479,42.77]]]}},{"type":"Feature","properties":{"name":"Skaneateles Lake"},"geometry":{"type":"Polygon","coordinates":[[[-76.272,42.787],[-76.428,42.91],[-76.425,42.96],[-76.272,42.787]]]}},{"type":"Feature","properties":{"name":null},"geometry":{"type":"Polygon","coordinates":[[[-163.468,60.414],[-163.577,60.342],[-163.557,60.27],[-163.77,60.167],[-163.793,60.298],[-164.054,60.295],[-163.85,60.351],[-163.939,60.389],[-163.866,60.43],[-163.468,60.414]]]}},{"type":"Feature","properties":{"name":"Bear Lake"},"geometry":{"type":"Polygon","coordinates":[[[-111.288,42.033],[-111.349,41.871],[-111.407,41.988],[-111.393,42.131],[-111.313,42.148],[-111.288,42.033]]]}},{"type":"Feature","properties":{"name":"Utah Lake"},"geometry":{"type":"Polygon","coordinates":[[[-111.742,40.19],[-111.827,40.158],[-111.892,40.064],[-111.914,40.176],[-111.852,40.252],[-111.881,40.377],[-111.793,40.369],[-111.68,40.225],[-111.742,40.19]]]}},{"type":"Feature","properties":{"name":null},"geometry":{"type":"Polygon","coordinates":[[[-126.414,66.938],[-126.399,66.983],[-126.29,67.021],[-126.218,67.01],[-126.129,66.941],[-126.183,66.883],[-126.189,66.796],[-126.275,66.754],[-126.369,66.784],[-126.414,66.938]]]}},{"type":"Feature","properties":{"name":"Leech Lake"},"geometry":{"type":"Polygon","coordinates":[[[-94.245,47.191],[-94.302,47.097],[-94.395,47.067],[-94.519,47.143],[-94.566,47.12],[-94.57,47.075],[-94.621,47.166],[-94.611,47.206],[-94.379,47.241],[-94.296,47.285],[-94.308,47.183],[-94.245,47.191]]]}},{"type":"Feature","properties":{"name":"Lac des Mille Lacs"},"geometry":{"type":"Polygon","coordinates":[[[-90.292,48.935],[-90.34,48.821],[-90.375,48.786],[-90.44,48.785],[-90.634,48.833],[-90.65,48.917],[-90.688,48.944],[-90.626,48.974],[-90.546,48.895],[-90.48,48.885],[-90.361,48.893],[-90.292,48.935]]]}},{"type":"Feature","properties":{"name":"Réservoir Baskatong"},"geometry":{"type":"Polygon","coordinates":[[[-75.694,46.897],[-75.751,46.718],[-75.864,46.755],[-76.033,46.759],[-75.958,46.859],[-75.831,46.902],[-75.737,46.997],[-75.694,46.897]]]}},{"type":"Feature","properties":{"name":"Trout Lake"},"geometry":{"type":"Polygon","coordinates":[[[-121.256,60.448],[-121.408,60.4],[-121.497,60.459],[-121.586,60.438],[-121.484,60.517],[-121.316,60.588],[-121.336,60.771],[-121.176,60.722],[-121.108,60.665],[-121.091,60.592],[-121.149,60.513],[-121.256,60.448]]]}},{"type":"Feature","properties":{"name":"Lake Rossignol"},"geometry":{"type":"Polygon","coordinates":[[[-64.966,44.252],[-65.025,44.164],[-65.176,44.155],[-65.198,44.181],[-65.189,44.235],[-65.134,44.27],[-65.053,44.224],[-64.966,44.252]]]}},{"type":"Feature","properties":{"name":"Grand Lake"},"geometry":{"type":"Polygon","coordinates":[[[-66.106,45.871],[-66.15,45.856],[-66.19,45.881],[-66.077,45.953],[-66.027,46.05],[-65.92,46.093],[-65.989,45.942],[-66.106,45.871]]]}},{"type":"Feature","properties":{"name":"Goose Lake"},"geometry":{"type":"Polygon","coordinates":[[[-120.324,41.987],[-120.396,41.792],[-120.443,41.785],[-120.484,41.869],[-120.475,42.065],[-120.411,42.107],[-120.375,42.09],[-120.323,42.04],[-120.324,41.987]]]}},{"type":"Feature","properties":{"name":"Pyramid Lake"},"geometry":{"type":"Polygon","coordinates":[[[-119.432,39.903],[-119.446,39.868],[-119.487,39.878],[-119.636,40.028],[-119.696,40.123],[-119.641,40.191],[-119.577,40.209],[-119.534,40.181],[-119.483,39.974],[-119.432,39.903]]]}},{"type":"Feature","properties":{"name":"Millerton Lake"},"geometry":{"type":"Polygon","coordinates":[[[-119.603,37.057],[-119.603,37.031],[-119.693,37],[-119.603,37.057]]]}},{"type":"Feature","properties":{"name":"Bluenose Lake"},"geometry":{"type":"Polygon","coordinates":[[[-119.875,68.558],[-119.806,68.619],[-119.825,68.661],[-119.72,68.746],[-119.665,68.754],[-119.47,68.608],[-119.595,68.574],[-119.65,68.471],[-119.59,68.396],[-119.511,68.361],[-119.525,68.332],[-119.734,68.255],[-119.848,68.254],[-119.835,68.484],[-119.875,68.558]]]}},{"type":"Feature","properties":{"name":"Réservoir Pipmuacan"},"geometry":{"type":"Polygon","coordinates":[[[-70.08,49.44],[-70.137,49.491],[-70.157,49.592],[-70.283,49.641],[-70.351,49.59],[-70.354,49.504],[-70.467,49.532],[-70.508,49.427],[-70.571,49.473],[-70.701,49.427],[-70.816,49.543],[-70.963,49.406],[-70.834,49.625],[-70.716,49.525],[-70.585,49.572],[-70.442,49.684],[-70.34,49.67],[-70.305,49.701],[-70.307,49.748],[-70.377,49.887],[-70.317,49.864],[-70.236,49.699],[-70.171,49.684],[-70.135,49.708],[-70.017,49.597],[-69.899,49.545],[-69.783,49.339],[-69.856,49.342],[-69.902,49.481],[-69.946,49.518],[-70.029,49.498],[-70.08,49.44]]]}},{"type":"Feature","properties":{"name":"Grand Lake"},"geometry":{"type":"Polygon","coordinates":[[[-57.035,49.265],[-56.963,49.336],[-56.928,49.264],[-57.13,49.166],[-57.578,48.786],[-57.76,48.672],[-57.859,48.643],[-58.013,48.663],[-57.371,49.011],[-57.27,49.099],[-57.262,49.181],[-57.035,49.265]]]}},{"type":"Feature","properties":{"name":null},"geometry":{"type":"Polygon","coordinates":[[[-126.357,67.271],[-126.495,67.263],[-126.548,67.442],[-126.613,67.522],[-126.762,67.56],[-126.614,67.578],[-126.494,67.552],[-126.205,67.419],[-126.206,67.304],[-126.357,67.271]]]}},{"type":"Feature","properties":{"name":"Colville Lake"},"geometry":{"type":"Polygon","coordinates":[[[-125.751,67.313],[-125.73,67.297],[-125.828,67.124],[-125.918,67.079],[-126.061,67.059],[-126.222,67.085],[-126.184,67.138],[-126.241,67.199],[-125.751,67.313]]]}},{"type":"Feature","properties":{"name":"Hottah Lake"},"geometry":{"type":"Polygon","coordinates":[[[-118.666,64.999],[-118.698,65.109],[-118.832,65.192],[-118.825,65.217],[-118.445,65.291],[-118.265,65.199],[-118.246,65.136],[-118.282,65.069],[-118.237,64.986],[-118.325,64.903],[-118.319,64.873],[-118.156,64.852],[-118.146,64.795],[-118.333,64.781],[-118.488,64.841],[-118.636,64.928],[-118.666,64.999]]]}},{"type":"Feature","properties":{"name":"Big Trout Lake"},"geometry":{"type":"Polygon","coordinates":[[[-90.357,53.766],[-90.29,53.868],[-90.171,53.838],[-90.002,53.886],[-89.847,53.815],[-89.609,53.772],[-89.814,53.69],[-89.939,53.679],[-90.357,53.766]]]}},{"type":"Feature","properties":{"name":"Trout Lake"},"geometry":{"type":"Polygon","coordinates":[[[-93.165,51.071],[-93.235,51.033],[-93.32,51.075],[-93.429,51.154],[-93.48,51.237],[-93.37,51.302],[-93.175,51.295],[-93.072,51.173],[-93.165,51.071]]]}},{"type":"Feature","properties":{"name":"Island Lake"},"geometry":{"type":"Polygon","coordinates":[[[-94.236,53.734],[-94.518,53.71],[-94.682,53.733],[-94.933,53.827],[-94.933,53.933],[-94.754,53.989],[-94.634,53.986],[-94.601,53.972],[-94.686,53.915],[-94.59,53.858],[-94.131,53.892],[-94.002,53.847],[-94.014,53.798],[-94.236,53.734]]]}},{"type":"Feature","properties":{"name":"Lake Naococane"},"geometry":{"type":"Polygon","coordinates":[[[-70.509,52.996],[-70.397,52.974],[-70.484,52.872],[-70.433,52.61],[-70.522,52.682],[-70.538,52.8],[-70.577,52.803],[-70.64,52.736],[-70.762,52.787],[-70.783,52.899],[-70.817,52.909],[-70.94,52.817],[-70.981,52.841],[-70.924,52.938],[-70.741,52.981],[-70.828,53.015],[-70.82,53.06],[-70.691,52.998],[-70.509,52.996]]]}},{"type":"Feature","properties":{"name":"Lac la Ronge"},"geometry":{"type":"Polygon","coordinates":[[[-104.396,55.16],[-104.507,55.133],[-104.637,55.148],[-104.822,54.994],[-105.128,54.925],[-105.237,54.957],[-105.258,55.074],[-105.205,55.248],[-105.081,55.302],[-104.955,55.28],[-104.59,55.302],[-104.519,55.257],[-104.418,55.254],[-104.369,55.182],[-104.396,55.16]]]}},{"type":"Feature","properties":{"name":"Mille Lacs Lake"},"geometry":{"type":"Polygon","coordinates":[[[-93.534,46.249],[-93.514,46.177],[-93.54,46.15],[-93.668,46.137],[-93.775,46.2],[-93.795,46.255],[-93.758,46.308],[-93.607,46.36],[-93.552,46.341],[-93.534,46.249]]]}},{"type":"Feature","properties":{"name":"Lake Winnipesaukee"},"geometry":{"type":"Polygon","coordinates":[[[-71.293,43.635],[-71.216,43.587],[-71.232,43.54],[-71.277,43.532],[-71.443,43.628],[-71.374,43.722],[-71.293,43.635]]]}},{"type":"Feature","properties":{"name":"Lake Simcoe"},"geometry":{"type":"Polygon","coordinates":[[[-79.448,44.31],[-79.499,44.227],[-79.567,44.431],[-79.445,44.51],[-79.373,44.698],[-79.163,44.45],[-79.202,44.384],[-79.448,44.31]]]}},{"type":"Feature","properties":{"name":"Gods Lake"},"geometry":{"type":"Polygon","coordinates":[[[-93.923,54.835],[-93.645,54.788],[-93.912,54.744],[-93.989,54.671],[-94.414,54.586],[-94.495,54.502],[-94.763,54.412],[-94.758,54.476],[-94.508,54.669],[-94.476,54.786],[-94.437,54.805],[-94.272,54.842],[-93.923,54.835]]]}},{"type":"Feature","properties":{"name":"Malheur Lake"},"geometry":{"type":"Polygon","coordinates":[[[-118.68,43.29],[-118.821,43.24],[-118.903,43.303],[-118.948,43.394],[-118.791,43.425],[-118.664,43.405],[-118.612,43.298],[-118.68,43.29]]]}},{"type":"Feature","properties":{"name":null},"geometry":{"type":"Polygon","coordinates":[[[-56.483,48.3],[-56.712,48.182],[-56.56,48.352],[-56.466,48.329],[-56.483,48.3]]]}},{"type":"Feature","properties":{"name":null},"geometry":{"type":"Polygon","coordinates":[[[-95.6,55.615],[-95.769,55.442],[-95.918,55.419],[-95.896,55.487],[-95.795,55.569],[-95.6,55.615]]]}},{"type":"Feature","properties":{"name":null},"geometry":{"type":"Polygon","coordinates":[[[-165.382,65.205],[-165.482,65.134],[-165.708,65.08],[-165.792,65.091],[-165.898,65.165],[-165.382,65.205]]]}},{"type":"Feature","properties":{"name":null},"geometry":{"type":"Polygon","coordinates":[[[-163.798,61.144],[-163.781,61.106],[-163.842,61.055],[-163.936,61.145],[-163.826,61.217],[-163.547,61.231],[-163.798,61.144]]]}},{"type":"Feature","properties":{"name":null},"geometry":{"type":"Polygon","coordinates":[[[-162.508,60.795],[-162.502,60.772],[-162.573,60.76],[-162.768,60.818],[-162.655,60.843],[-162.508,60.795]]]}},{"type":"Feature","properties":{"name":"Tikchik Lakes"},"geometry":{"type":"Polygon","coordinates":[[[-158.863,59.201],[-158.875,59.166],[-158.941,59.18],[-158.959,59.246],[-159.058,59.337],[-158.945,59.314],[-158.863,59.201]]]}},{"type":"Feature","properties":{"name":"Tikchik Lakes"},"geometry":{"type":"Polygon","coordinates":[[[-158.223,59.943],[-158.535,59.961],[-159.024,59.896],[-159.092,59.9],[-159.132,59.951],[-158.542,60.016],[-158.223,59.943]]]}},{"type":"Feature","properties":{"name":"Tikchik Lakes"},"geometry":{"type":"Polygon","coordinates":[[[-159.159,60.196],[-158.853,60.283],[-158.874,60.264],[-158.778,60.23],[-158.774,60.201],[-159.159,60.196]]]}},{"type":"Feature","properties":{"name":"Tikchik Lakes"},"geometry":{"type":"Polygon","coordinates":[[[-158.708,59.564],[-158.825,59.543],[-158.835,59.518],[-158.582,59.425],[-158.805,59.445],[-158.992,59.516],[-159.133,59.651],[-158.945,59.586],[-158.647,59.596],[-158.708,59.564]]]}},{"type":"Feature","properties":{"name":"Rainy Lake"},"geometry":{"type":"Polygon","coordinates":[[[-92.918,48.433],[-93.071,48.504],[-92.788,48.455],[-92.704,48.505],[-92.948,48.586],[-93.079,48.591],[-93.117,48.553],[-93.339,48.6],[-93.382,48.616],[-93.401,48.681],[-93.403,48.705],[-93.352,48.717],[-93.365,48.748],[-93.613,48.834],[-93.434,48.846],[-93.463,48.903],[-93.322,48.934],[-93.262,48.825],[-93.203,48.791],[-93.2,48.746],[-93.265,48.686],[-93.245,48.667],[-93.124,48.728],[-93.149,48.675],[-93.119,48.668],[-92.793,48.695],[-92.779,48.678],[-92.87,48.635],[-92.732,48.588],[-92.655,48.6],[-92.585,48.534],[-92.6,48.485],[-92.491,48.456],[-92.435,48.391],[-92.441,48.357],[-92.6,48.424],[-92.918,48.433]]]}},{"type":"Feature","properties":{"name":"Williston Lake"},"geometry":{"type":"Polygon","coordinates":[[[-122.502,56.084],[-122.925,56.058],[-123.139,55.974],[-123.716,56.015],[-123.782,55.995],[-123.774,55.887],[-123.657,55.752],[-123.177,55.402],[-123.147,55.191],[-123.415,55.534],[-123.506,55.613],[-124.028,55.906],[-124.033,56],[-124.21,56.014],[-124.508,56.114],[-124.215,56.053],[-124.158,56.087],[-124.345,56.21],[-124.834,56.713],[-124.836,56.757],[-124.759,56.742],[-124.249,56.263],[-124.142,56.237],[-124.073,56.255],[-124.053,56.223],[-124.073,56.154],[-123.97,56.061],[-123.238,56.029],[-122.971,56.116],[-122.566,56.158],[-122.264,56.084],[-122.222,56.021],[-122.502,56.084]]]}},{"type":"Feature","properties":{"name":"Split Lake"},"geometry":{"type":"Polygon","coordinates":[[[-96.049,56.136],[-96.081,56.118],[-96.073,56.085],[-96.358,56.094],[-96.553,56.063],[-96.572,56.086],[-96.504,56.15],[-96.279,56.177],[-96.054,56.273],[-95.842,56.291],[-96.105,56.203],[-96.049,56.136]]]}},{"type":"Feature","properties":{"name":"Ft. Peck Lake"},"geometry":{"type":"Polygon","coordinates":[[[-106.217,47.585],[-106.251,47.55],[-106.251,47.644],[-106.336,47.785],[-106.454,47.879],[-106.521,47.828],[-106.556,47.75],[-106.813,47.716],[-106.862,47.631],[-106.906,47.672],[-106.993,47.644],[-107.306,47.685],[-107.429,47.635],[-107.612,47.623],[-107.846,47.468],[-107.911,47.39],[-107.916,47.509],[-107.949,47.558],[-108.196,47.602],[-107.959,47.601],[-107.841,47.526],[-107.685,47.646],[-107.714,47.688],[-107.455,47.662],[-107.336,47.728],[-106.93,47.725],[-106.938,47.746],[-106.881,47.778],[-106.769,47.788],[-106.596,47.86],[-106.566,47.907],[-106.59,47.958],[-106.433,48.027],[-106.325,47.985],[-106.358,47.925],[-106.345,47.879],[-106.253,47.815],[-106.217,47.585]]]}},{"type":"Feature","properties":{"name":"Lake Sakakawea"},"geometry":{"type":"Polygon","coordinates":[[[-102.147,47.568],[-102.237,47.589],[-102.429,47.562],[-102.299,47.657],[-102.336,47.757],[-102.561,47.785],[-102.616,47.819],[-102.653,47.916],[-102.614,47.992],[-102.761,48.084],[-103.059,48.125],[-103.459,48.016],[-103.52,48.027],[-103.583,48.097],[-103.75,48.017],[-103.772,48.027],[-103.759,48.074],[-103.666,48.142],[-103.575,48.153],[-103.45,48.067],[-103.353,48.076],[-103.118,48.171],[-102.916,48.171],[-102.675,48.105],[-102.598,48.053],[-102.557,47.968],[-102.575,47.844],[-102.527,47.822],[-102.384,47.82],[-102.415,47.938],[-102.273,47.978],[-102.294,47.912],[-102.24,47.766],[-102.169,47.729],[-102.212,47.677],[-102.16,47.624],[-101.884,47.561],[-101.203,47.645],[-101.14,47.606],[-101.4,47.506],[-101.59,47.515],[-101.917,47.464],[-102.147,47.568]]]}},{"type":"Feature","properties":{"name":"Teslin Lake"},"geometry":{"type":"Polygon","coordinates":[[[-132.095,59.607],[-132.159,59.626],[-132.399,59.922],[-132.61,60.05],[-132.958,60.201],[-133.245,60.449],[-133.138,60.427],[-132.798,60.192],[-132.522,60.098],[-132.364,59.986],[-132.23,59.849],[-132.202,59.77],[-132.089,59.644],[-132.095,59.607]]]}},{"type":"Feature","properties":{"name":"Lower Arrow Lake"},"geometry":{"type":"Polygon","coordinates":[[[-117.907,49.342],[-117.957,49.336],[-118.063,49.412],[-118.139,49.521],[-118.156,49.601],[-118.092,49.802],[-118.109,49.583],[-118.087,49.515],[-118.048,49.457],[-117.911,49.375],[-117.907,49.342]]]}},{"type":"Feature","properties":{"name":"Lake Pend Oreille"},"geometry":{"type":"Polygon","coordinates":[[[-116.215,48.16],[-116.41,48.107],[-116.456,47.984],[-116.553,47.971],[-116.498,48.115],[-116.374,48.208],[-116.4,48.247],[-116.469,48.263],[-116.569,48.25],[-116.499,48.301],[-116.362,48.284],[-116.215,48.16]]]}},{"type":"Feature","properties":{"name":"Lake Chelan"},"geometry":{"type":"Polygon","coordinates":[[[-120.011,47.852],[-120.172,47.914],[-120.205,47.962],[-120.53,48.162],[-120.628,48.279],[-120.011,47.852]]]}},{"type":"Feature","properties":{"name":"Black Lake"},"geometry":{"type":"Polygon","coordinates":[[[-105.394,59.128],[-105.66,59.055],[-105.785,58.922],[-105.868,58.939],[-105.806,59.031],[-105.215,59.296],[-104.948,59.237],[-105.012,59.173],[-105.394,59.128]]]}},{"type":"Feature","properties":{"name":"Lake Louise"},"geometry":{"type":"Polygon","coordinates":[[[-146.473,62.332],[-146.515,62.282],[-146.653,62.362],[-146.704,62.411],[-146.684,62.504],[-146.661,62.508],[-146.61,62.414],[-146.473,62.332]]]}},{"type":"Feature","properties":{"name":"Lower Red Lake"},"geometry":{"type":"Polygon","coordinates":[[[-94.97,48.032],[-94.783,47.97],[-94.792,47.91],[-95.111,47.889],[-95.248,47.907],[-95.271,47.942],[-95.187,48.033],[-95.086,48.065],[-94.97,48.032]]]}},{"type":"Feature","properties":{"name":"Upper Red Lake"},"geometry":{"type":"Polygon","coordinates":[[[-95.02,48.125],[-94.69,48.203],[-94.561,48.178],[-94.558,48.141],[-94.75,48.066],[-95.008,48.072],[-95.02,48.125]]]}},{"type":"Feature","properties":{"name":"Yathkyed Lake"},"geometry":{"type":"Polygon","coordinates":[[[-97.969,62.548],[-98.206,62.69],[-98.35,62.616],[-98.356,62.708],[-98.458,62.829],[-98.207,62.81],[-98.194,62.851],[-97.764,62.864],[-97.63,62.979],[-97.618,62.924],[-97.662,62.864],[-97.613,62.663],[-97.427,62.502],[-97.309,62.485],[-97.445,62.422],[-97.702,62.507],[-97.842,62.5],[-97.913,62.459],[-98.048,62.527],[-97.969,62.548]]]}},{"type":"Feature","properties":{"name":"Amadjuak Lake"},"geometry":{"type":"Polygon","coordinates":[[[-70.647,64.686],[-70.637,64.711],[-70.804,64.774],[-70.999,64.787],[-71.225,64.643],[-71.563,64.613],[-71.899,64.728],[-71.919,64.751],[-71.898,64.778],[-72.053,64.91],[-71.956,64.948],[-71.963,64.913],[-71.819,64.91],[-71.873,64.844],[-71.748,64.819],[-71.708,64.829],[-71.75,64.861],[-71.512,64.906],[-71.534,64.947],[-71.638,64.985],[-71.546,65.082],[-71.691,65.242],[-71.665,65.308],[-71.765,65.397],[-71.737,65.408],[-71.542,65.31],[-71.3,65.266],[-71.231,65.211],[-70.695,65.024],[-70.633,64.908],[-70.384,64.717],[-70.48,64.664],[-70.385,64.59],[-70.721,64.622],[-70.647,64.686]]]}},{"type":"Feature","properties":{"name":"Amistad Reservoir"},"geometry":{"type":"Polygon","coordinates":[[[-100.918,29.502],[-101.1,29.458],[-101.272,29.498],[-101.261,29.562],[-101.302,29.584],[-101.305,29.634],[-101.275,29.648],[-101.072,29.51],[-100.977,29.557],[-100.951,29.61],[-100.951,29.529],[-100.918,29.502]]]}},{"type":"Feature","properties":{"name":"Cabonga Reservoir"},"geometry":{"type":"Polygon","coordinates":[[[-76.479,47.138],[-76.327,47.102],[-76.393,47.056],[-76.505,47.092],[-76.651,47.278],[-76.639,47.185],[-76.669,47.2],[-76.741,47.355],[-76.781,47.357],[-76.779,47.476],[-76.823,47.498],[-76.522,47.691],[-76.722,47.54],[-76.605,47.572],[-76.633,47.51],[-76.408,47.446],[-76.517,47.201],[-76.479,47.138]]]}},{"type":"Feature","properties":{"name":"Lago de Chapala"},"geometry":{"type":"Polygon","coordinates":[[[-102.711,20.194],[-102.713,20.162],[-102.786,20.124],[-103.008,20.183],[-103.17,20.179],[-103.372,20.26],[-103.002,20.329],[-102.894,20.319],[-102.77,20.198],[-102.711,20.194]]]}},{"type":"Feature","properties":{"name":"Lago de Managua"},"geometry":{"type":"Polygon","coordinates":[[[-86.104,12.312],[-86.105,12.208],[-86.315,12.177],[-86.304,12.265],[-86.47,12.274],[-86.572,12.343],[-86.589,12.405],[-86.294,12.474],[-86.161,12.315],[-86.104,12.312]]]}},{"type":"Feature","properties":{"name":"Lago Gatun"},"geometry":{"type":"Polygon","coordinates":[[[-79.671,9.144],[-79.691,9.104],[-79.83,9.046],[-79.855,9.055],[-79.811,9.105],[-79.9,9.154],[-79.96,9.023],[-80.012,9.06],[-80.058,9.021],[-80.068,9.041],[-79.923,9.267],[-79.822,9.32],[-79.799,9.254],[-79.844,9.222],[-79.816,9.185],[-79.739,9.13],[-79.671,9.144]]]}},{"type":"Feature","properties":{"name":"Lake Manitoba"},"geometry":{"type":"Polygon","coordinates":[[[-97.959,50.357],[-98.072,50.274],[-98.242,50.214],[-98.402,50.204],[-98.519,50.242],[-98.608,50.568],[-98.853,50.946],[-98.941,51.008],[-99.006,51.114],[-98.988,51.152],[-98.881,51.037],[-98.847,51.039],[-98.836,51.1],[-98.897,51.188],[-99.026,51.267],[-99.163,51.543],[-99.258,51.563],[-99.37,51.635],[-99.426,51.627],[-99.527,51.546],[-99.549,51.699],[-99.491,51.758],[-99.39,51.781],[-99.217,51.636],[-99.166,51.675],[-99.177,51.762],[-99.105,51.736],[-98.918,51.395],[-98.911,51.513],[-98.972,51.675],[-98.894,51.709],[-98.833,51.684],[-98.758,51.588],[-98.779,51.466],[-98.754,51.363],[-98.572,51.243],[-98.669,51.104],[-98.718,51.088],[-98.76,50.995],[-98.74,50.935],[-98.41,50.823],[-98.244,50.719],[-97.971,50.47],[-97.959,50.357]]]}},{"type":"Feature","properties":{"name":"Lake Winnipegosis"},"geometry":{"type":"Polygon","coordinates":[[[-99.674,51.613],[-99.775,51.59],[-99.935,51.717],[-99.95,51.763],[-99.899,51.841],[-99.984,52.04],[-100.005,52.016],[-99.999,51.744],[-100.025,51.727],[-100.049,51.756],[-100.113,51.891],[-100.165,52.254],[-100.136,52.351],[-100.027,52.464],[-99.992,52.567],[-100.045,52.649],[-100.062,52.763],[-100.241,52.865],[-100.292,52.859],[-100.343,52.807],[-100.279,52.782],[-100.242,52.64],[-100.261,52.621],[-100.418,52.773],[-100.453,52.953],[-100.6,52.998],[-100.665,52.98],[-100.621,52.886],[-100.678,52.778],[-100.823,52.753],[-100.825,52.799],[-100.915,52.814],[-100.993,52.88],[-100.994,52.987],[-101.102,53.081],[-101.091,53.1],[-100.964,53.147],[-100.895,53.098],[-100.726,53.098],[-100.515,53.171],[-99.844,52.975],[-99.757,52.913],[-99.678,52.9],[-99.705,52.812],[-99.662,52.61],[-99.675,52.473],[-99.839,52.243],[-99.809,52.095],[-99.744,52.005],[-99.798,51.876],[-99.781,51.761],[-99.746,51.752],[-99.666,51.854],[-99.647,51.842],[-99.62,51.651],[-99.674,51.613]]]}},{"type":"Feature","properties":{"name":"Réservoir Manicouagan"},"geometry":{"type":"Polygon","coordinates":[[[-68.255,51.399],[-68.204,51.306],[-68.223,51.265],[-68.352,51.149],[-68.447,51.12],[-68.642,50.991],[-68.74,50.716],[-68.743,50.922],[-68.782,51.004],[-68.868,51.094],[-69.148,51.274],[-69.176,51.324],[-69.134,51.518],[-69.25,51.682],[-69.118,51.661],[-69.063,51.838],[-69.043,51.675],[-69.01,51.633],[-68.935,51.648],[-68.856,51.721],[-68.808,51.683],[-68.7,51.691],[-68.596,51.756],[-68.535,51.755],[-68.457,51.883],[-68.443,51.818],[-68.483,51.702],[-68.461,51.672],[-68.319,51.642],[-68.206,51.707],[-68.291,51.537],[-68.251,51.465],[-68.255,51.399]],[[-68.538,51.393],[-68.58,51.457],[-68.562,51.48],[-68.391,51.368],[-68.405,51.532],[-68.605,51.631],[-68.844,51.6],[-69.054,51.472],[-69.101,51.41],[-69.015,51.28],[-68.865,51.198],[-68.683,51.156],[-68.4,51.256],[-68.538,51.393]]]}},{"type":"Feature","properties":{"name":"Churchill Lake"},"geometry":{"type":"Polygon","coordinates":[[[-108.561,56.51],[-108.692,56.49],[-108.736,56.668],[-108.859,56.709],[-108.87,56.748],[-108.765,56.813],[-108.703,56.792],[-108.634,56.715],[-108.495,56.693],[-108.425,56.629],[-108.412,56.464],[-108.134,56.426],[-108.074,56.382],[-108.111,56.308],[-108.189,56.271],[-108.135,56.038],[-108.3,55.858],[-108.572,55.698],[-108.627,55.552],[-108.665,55.569],[-108.688,55.749],[-108.759,55.903],[-109.034,55.93],[-109.158,56.068],[-109.086,56.122],[-108.875,56.08],[-108.671,55.979],[-108.6,55.848],[-108.52,55.879],[-108.467,55.936],[-108.433,56.104],[-108.273,56.191],[-108.268,56.244],[-108.315,56.29],[-108.376,56.285],[-108.539,56.366],[-108.53,56.479],[-108.561,56.51]]]}},{"type":"Feature","properties":{"name":null},"geometry":{"type":"Polygon","coordinates":[[[-105.042,21.801],[-105.042,21.796],[-105.063,21.809],[-105.042,21.801]]]}},{"type":"Feature","properties":{"name":"Lake Mead"},"geometry":{"type":"Polygon","coordinates":[[[-113.636,35.831],[-113.795,36.01],[-113.989,36.165],[-114.039,36.163],[-114.11,36.032],[-114.208,36.006],[-114.294,36.03],[-114.373,36.1],[-114.451,36.079],[-114.504,36.106],[-114.64,36.106],[-114.741,36.014],[-114.812,36.075],[-114.816,36.121],[-114.432,36.237],[-114.387,36.483],[-114.336,36.519],[-114.37,36.209],[-114.295,36.11],[-114.226,36.05],[-114.159,36.077],[-114.03,36.245],[-113.996,36.244],[-113.777,36.048],[-113.636,35.831]]]}},{"type":"Feature","properties":{"name":"Lake Powell"},"geometry":{"type":"Polygon","coordinates":[[[-110.368,37.898],[-110.433,37.711],[-110.836,37.225],[-110.792,37.193],[-110.65,37.208],[-110.676,37.175],[-110.996,37.114],[-111.473,36.932],[-111.53,37.029],[-111.339,37.062],[-111.256,37.146],[-111.211,37.119],[-111.163,37.165],[-110.963,37.151],[-110.858,37.335],[-110.799,37.352],[-110.736,37.431],[-110.755,37.526],[-110.681,37.531],[-110.555,37.631],[-110.447,37.769],[-110.435,37.871],[-110.404,37.906],[-110.368,37.898]]]}},{"type":"Feature","properties":{"name":"Southern Indian Lake"},"geometry":{"type":"Polygon","coordinates":[[[-98.295,57.493],[-98.201,57.405],[-97.995,57.387],[-98.109,57.317],[-98.25,57.112],[-98.561,57.061],[-98.855,56.841],[-99.002,56.862],[-99.218,56.736],[-99.553,56.711],[-99.571,56.641],[-99.686,56.73],[-99.546,56.776],[-99.329,56.988],[-99.155,56.956],[-99.015,57.085],[-99.037,56.975],[-99.006,56.927],[-98.873,56.946],[-98.857,57.06],[-98.695,57.117],[-98.651,57.219],[-98.668,57.262],[-98.508,57.299],[-98.537,57.456],[-98.593,57.529],[-98.596,57.585],[-98.556,57.611],[-98.528,57.543],[-98.472,57.549],[-98.206,57.654],[-98.295,57.493]]]}},{"type":"Feature","properties":{"name":"Lake Abitibi"},"geometry":{"type":"Polygon","coordinates":[[[-80.18,48.812],[-80.105,48.913],[-79.889,48.924],[-79.836,48.875],[-79.857,48.807],[-79.832,48.73],[-79.701,48.723],[-79.576,48.797],[-79.413,48.715],[-79.259,48.69],[-79.226,48.472],[-79.313,48.452],[-79.295,48.578],[-79.319,48.631],[-79.867,48.633],[-80.06,48.783],[-80.18,48.812]]]}},{"type":"Feature","properties":{"name":"Fort Peck Lake"},"geometry":{"type":"Polygon","coordinates":[[[-106.217,47.585],[-106.251,47.55],[-106.251,47.644],[-106.336,47.785],[-106.454,47.879],[-106.521,47.828],[-106.556,47.75],[-106.813,47.716],[-106.862,47.631],[-106.906,47.672],[-106.993,47.644],[-107.306,47.685],[-107.429,47.635],[-107.612,47.623],[-107.846,47.468],[-107.911,47.39],[-107.916,47.509],[-107.949,47.558],[-108.196,47.602],[-107.959,47.601],[-107.841,47.526],[-107.685,47.646],[-107.714,47.688],[-107.455,47.662],[-107.336,47.728],[-106.93,47.725],[-106.938,47.746],[-106.881,47.778],[-106.769,47.788],[-106.596,47.86],[-106.566,47.907],[-106.59,47.958],[-106.433,48.027],[-106.325,47.985],[-106.358,47.925],[-106.345,47.879],[-106.253,47.815],[-106.217,47.585]]]}},{"type":"Feature","properties":{"name":"Lake Oahe"},"geometry":{"type":"Polygon","coordinates":[[[-100.289,45.017],[-100.37,44.988],[-100.392,44.896],[-100.476,44.794],[-100.573,44.753],[-100.625,44.767],[-100.595,44.601],[-100.488,44.573],[-100.504,44.522],[-100.397,44.47],[-100.412,44.419],[-100.61,44.47],[-100.682,44.714],[-100.724,44.732],[-100.848,44.764],[-101.188,44.727],[-100.995,44.777],[-100.96,44.818],[-100.805,44.834],[-100.767,44.85],[-100.778,44.882],[-100.559,44.811],[-100.5,44.87],[-100.457,44.872],[-100.447,44.999],[-100.347,45.102],[-100.335,45.157],[-100.317,45.26],[-100.345,45.305],[-100.407,45.348],[-100.612,45.355],[-100.344,45.39],[-100.434,45.504],[-100.627,45.647],[-100.448,45.644],[-100.39,45.71],[-100.414,45.808],[-100.659,46.12],[-100.668,46.162],[-100.594,46.314],[-100.606,46.489],[-100.634,46.58],[-100.767,46.673],[-100.777,46.714],[-100.714,46.705],[-100.585,46.617],[-100.527,46.386],[-100.574,46.187],[-100.559,46.096],[-100.493,45.988],[-100.35,45.854],[-100.345,45.685],[-100.408,45.564],[-100.281,45.427],[-100.255,45.242],[-100.286,45.088],[-100.262,45.044],[-100.289,45.017]]]}},{"type":"Feature","properties":{"name":"Teslin Lake"},"geometry":{"type":"Polygon","coordinates":[[[-132.095,59.607],[-132.159,59.626],[-132.399,59.922],[-132.61,60.05],[-132.958,60.201],[-133.245,60.449],[-133.138,60.427],[-132.798,60.192],[-132.522,60.098],[-132.364,59.986],[-132.23,59.849],[-132.202,59.77],[-132.089,59.644],[-132.095,59.607]]]}},{"type":"Feature","properties":{"name":"Lower Arrow Lake"},"geometry":{"type":"Polygon","coordinates":[[[-117.907,49.342],[-117.957,49.336],[-118.063,49.412],[-118.139,49.521],[-118.156,49.601],[-118.092,49.802],[-118.109,49.583],[-118.087,49.515],[-118.048,49.457],[-117.911,49.375],[-117.907,49.342]]]}},{"type":"Feature","properties":{"name":"Aylmer Lake"},"geometry":{"type":"Polygon","coordinates":[[[-107.932,64.036],[-108.161,64.038],[-108.459,63.945],[-108.858,64.065],[-109.114,64.076],[-109.394,64.02],[-109.571,64.018],[-109.639,64.051],[-108.634,64.17],[-108.598,64.195],[-108.623,64.276],[-108.602,64.331],[-108.467,64.413],[-108.432,64.398],[-108.419,64.267],[-108.247,64.316],[-108.358,64.181],[-108.336,64.156],[-108.263,64.142],[-108.186,64.177],[-107.945,64.094],[-107.932,64.036]]]}},{"type":"Feature","properties":{"name":"Clinton-Colden Lake"},"geometry":{"type":"Polygon","coordinates":[[[-107.945,64.094],[-107.752,64.071],[-107.323,64.131],[-107.238,64.1],[-107.269,63.983],[-107.222,63.926],[-107.104,63.924],[-107.106,63.894],[-107.274,63.776],[-107.502,63.789],[-107.632,63.877],[-107.622,63.97],[-107.789,63.981],[-107.805,63.956],[-107.932,64.036],[-107.945,64.094]]]}},{"type":"Feature","properties":{"name":"Lake Francis Case"},"geometry":{"type":"Polygon","coordinates":[[[-99.147,43.433],[-98.905,43.285],[-98.831,43.206],[-98.571,43.102],[-98.56,43.06],[-98.666,43.059],[-98.9,43.159],[-98.93,43.226],[-99.315,43.468],[-99.383,43.606],[-99.471,43.669],[-99.365,43.843],[-99.364,43.991],[-99.303,43.903],[-99.411,43.703],[-99.244,43.477],[-99.147,43.433]]]}},{"type":"Feature","properties":{"name":"Falcon Lake"},"geometry":{"type":"Polygon","coordinates":[[[-99.184,26.76],[-99.113,26.727],[-99.15,26.592],[-99.2,26.562],[-99.243,26.584],[-99.283,26.76],[-99.331,26.803],[-99.394,26.795],[-99.364,26.821],[-99.368,26.886],[-99.464,27.025],[-99.457,27.057],[-99.277,26.921],[-99.218,26.91],[-99.218,26.805],[-99.184,26.76]]]}},{"type":"Feature","properties":{"name":"Lac Île-à-la-Crosse"},"geometry":{"type":"Polygon","coordinates":[[[-107.789,55.211],[-108.044,55.508],[-108.036,55.554],[-107.985,55.575],[-107.85,55.528],[-107.806,55.553],[-107.857,55.661],[-107.769,55.698],[-107.766,55.894],[-107.737,55.921],[-107.666,55.744],[-107.74,55.408],[-107.792,55.367],[-107.769,55.267],[-107.789,55.211]]]}},{"type":"Feature","properties":{"name":"Wholdaia Lake"},"geometry":{"type":"Polygon","coordinates":[[[-103.836,60.554],[-103.935,60.477],[-103.949,60.421],[-104.187,60.341],[-104.135,60.533],[-104.494,60.726],[-104.343,60.871],[-104.38,60.901],[-104.505,60.818],[-104.588,60.813],[-104.643,60.856],[-104.53,60.86],[-104.449,61.001],[-104.335,61.026],[-104.213,60.938],[-104.219,60.814],[-104.141,60.826],[-104.219,60.757],[-104.124,60.752],[-103.851,60.824],[-103.769,60.866],[-103.716,60.952],[-103.647,60.902],[-103.667,60.835],[-104.137,60.668],[-104.123,60.624],[-104.042,60.602],[-103.879,60.641],[-103.81,60.71],[-103.746,60.701],[-103.736,60.642],[-103.836,60.554]]]}},{"type":"Feature","properties":{"name":"Tehek Lake"},"geometry":{"type":"Polygon","coordinates":[[[-95.249,65.003],[-95.39,64.972],[-95.463,64.921],[-95.459,64.789],[-95.487,64.766],[-95.593,64.782],[-95.636,64.846],[-95.799,64.923],[-95.858,64.915],[-95.881,64.851],[-96.032,64.923],[-96.003,64.974],[-95.931,65.003],[-95.632,65.039],[-95.25,65.034],[-95.249,65.003]]]}},{"type":"Feature","properties":{"name":"Réservoir de Caniapiscau"},"geometry":{"type":"Polygon","coordinates":[[[-69.351,54.083],[-69.269,54.047],[-69.834,53.946],[-69.869,53.955],[-69.856,53.977],[-69.703,54.038],[-69.707,54.069],[-69.983,54.139],[-70.141,54.129],[-70.011,54.223],[-69.879,54.261],[-69.88,54.311],[-70.071,54.337],[-70.041,54.372],[-69.901,54.379],[-69.858,54.368],[-69.793,54.283],[-69.682,54.268],[-69.697,54.153],[-69.477,54.092],[-69.406,54.121],[-69.351,54.083]]]}},{"type":"Feature","properties":{"name":null},"geometry":{"type":"Polygon","coordinates":[[[-68.68,53.798],[-68.726,53.689],[-68.716,53.583],[-68.853,53.594],[-68.9,53.483],[-69.055,53.428],[-69.085,53.444],[-68.947,53.609],[-68.827,53.676],[-68.866,53.737],[-68.767,53.796],[-69.008,53.94],[-69.243,53.961],[-69.171,53.99],[-69.146,54.04],[-69.062,54.007],[-69.005,54.042],[-68.68,53.798]]]}},{"type":"Feature","properties":{"name":null},"geometry":{"type":"Polygon","coordinates":[[[-70.233,54.444],[-70.419,54.359],[-70.517,54.441],[-70.424,54.41],[-70.214,54.479],[-69.97,54.49],[-69.912,54.552],[-69.912,54.617],[-69.96,54.684],[-70.029,54.676],[-69.983,54.742],[-69.9,54.704],[-69.839,54.525],[-69.766,54.466],[-69.949,54.425],[-70.233,54.444]]]}},{"type":"Feature","properties":{"name":"Kentucky Lake"},"geometry":{"type":"Polygon","coordinates":[[[-88.057,36.669],[-88.007,36.427],[-87.91,36.187],[-87.975,35.945],[-88.041,35.949],[-87.983,36.099],[-87.991,36.234],[-88.039,36.307],[-88.066,36.314],[-88.092,36.26],[-88.116,36.293],[-88.084,36.555],[-88.283,37.022],[-88.207,36.971],[-88.057,36.669]]]}},{"type":"Feature","properties":{"name":"J. Strom Thurmond Lake"},"geometry":{"type":"Polygon","coordinates":[[[-82.411,33.954],[-82.188,33.694],[-82.208,33.664],[-82.575,33.643],[-82.275,33.725],[-82.491,33.898],[-82.579,33.865],[-82.553,33.937],[-82.589,34.017],[-82.441,33.938],[-82.411,33.954]]]}},{"type":"Feature","properties":{"name":"Kinbasket Lake"},"geometry":{"type":"Polygon","coordinates":[[[-118.402,52.172],[-118.18,52.178],[-118.218,52.129],[-118.392,52.069],[-118.499,52.069],[-118.551,52.241],[-119.128,52.739],[-119.058,52.727],[-118.402,52.172]]]}},{"type":"Feature","properties":{"name":"Lake George"},"geometry":{"type":"Polygon","coordinates":[[[-81.684,29.368],[-81.683,29.505],[-81.54,29.287],[-81.529,29.224],[-81.595,29.198],[-81.684,29.368]]]}},{"type":"Feature","properties":{"name":"Lake Havasu"},"geometry":{"type":"Polygon","coordinates":[[[-114.359,34.438],[-114.405,34.488],[-114.377,34.54],[-114.082,34.318],[-114.134,34.242],[-114.164,34.253],[-114.189,34.318],[-114.359,34.438]]]}},{"type":"Feature","properties":{"name":"Shasta Lake"},"geometry":{"type":"Polygon","coordinates":[[[-122.232,40.871],[-122.242,40.806],[-122.095,40.783],[-122.151,40.746],[-122.411,40.721],[-122.395,40.829],[-122.351,40.784],[-122.232,40.871]]]}},{"type":"Feature","properties":{"name":"Point Lake"},"geometry":{"type":"Polygon","coordinates":[[[-114.098,65.378],[-114.185,65.446],[-114.442,65.477],[-114.381,65.616],[-114.397,65.657],[-114.229,65.677],[-114.173,65.638],[-114.183,65.611],[-114.298,65.6],[-114.287,65.555],[-114.169,65.496],[-113.937,65.444],[-113.84,65.368],[-113.621,65.416],[-113.517,65.385],[-113.271,65.401],[-113.113,65.385],[-113.125,65.361],[-113.316,65.332],[-113.272,65.306],[-112.678,65.203],[-112.217,65.225],[-112.222,65.192],[-112.307,65.183],[-112.346,65.128],[-112.242,64.966],[-112.318,64.96],[-112.457,65.153],[-112.939,65.213],[-112.997,65.196],[-113.324,65.26],[-113.787,65.244],[-114.098,65.378]]]}},{"type":"Feature","properties":{"name":"Upper Klamath Lake"},"geometry":{"type":"Polygon","coordinates":[[[-121.941,42.604],[-121.948,42.499],[-121.828,42.409],[-121.809,42.251],[-121.922,42.332],[-121.957,42.396],[-122.042,42.428],[-122.06,42.475],[-121.941,42.604]]]}},{"type":"Feature","properties":{"name":"Harney Lake"},"geometry":{"type":"Polygon","coordinates":[[[-119.195,43.229],[-119.205,43.256],[-119.133,43.308],[-119.005,43.239],[-119.081,43.16],[-119.163,43.184],[-119.195,43.229]]]}},{"type":"Feature","properties":{"name":"Chiputneticook Lakes"},"geometry":{"type":"Polygon","coordinates":[[[-67.708,45.692],[-67.6,45.637],[-67.48,45.683],[-67.449,45.607],[-67.625,45.602],[-67.863,45.74],[-67.787,45.759],[-67.708,45.692]]]}},{"type":"Feature","properties":{"name":"Aishihik Lake"},"geometry":{"type":"Polygon","coordinates":[[[-137.148,61.503],[-137.096,61.457],[-136.989,61.235],[-137.083,61.292],[-137.168,61.45],[-137.522,61.636],[-137.442,61.652],[-137.148,61.503]]]}},{"type":"Feature","properties":{"name":null},"geometry":{"type":"Polygon","coordinates":[[[-155.453,58.637],[-155.655,58.602],[-155.646,58.576],[-155.473,58.53],[-155.653,58.52],[-155.841,58.597],[-156.323,58.629],[-156.409,58.691],[-156.153,58.729],[-156.006,58.688],[-155.435,58.66],[-155.453,58.637]]]}},{"type":"Feature","properties":{"name":null},"geometry":{"type":"Polygon","coordinates":[[[-162.838,61.041],[-163.031,61.083],[-163.002,61.109],[-162.713,61.077],[-162.838,61.041]]]}},{"type":"Feature","properties":{"name":"Lake Clark"},"geometry":{"type":"Polygon","coordinates":[[[-154.473,60.222],[-153.627,60.436],[-153.659,60.404],[-154.26,60.23],[-154.72,60.04],[-154.752,60.07],[-154.473,60.222]]]}},{"type":"Feature","properties":{"name":null},"geometry":{"type":"Polygon","coordinates":[[[-151.166,60.227],[-151.065,60.305],[-150.894,60.272],[-150.654,60.121],[-150.681,60.048],[-150.716,60.052],[-151.021,60.206],[-151.166,60.227]]]}},{"type":"Feature","properties":{"name":null},"geometry":{"type":"Polygon","coordinates":[[[-160.002,61.35],[-160.131,61.358],[-160.103,61.406],[-160.038,61.422],[-159.934,61.367],[-160.002,61.35]]]}},{"type":"Feature","properties":{"name":null},"geometry":{"type":"Polygon","coordinates":[[[-162.307,60.951],[-162.204,60.853],[-162.275,60.821],[-162.37,60.83],[-162.397,60.95],[-162.362,60.99],[-162.307,60.951]]]}},{"type":"Feature","properties":{"name":null},"geometry":{"type":"Polygon","coordinates":[[[-163.706,61.562],[-163.638,61.519],[-163.699,61.472],[-163.729,61.523],[-163.973,61.645],[-163.706,61.562]]]}},{"type":"Feature","properties":{"name":null},"geometry":{"type":"Polygon","coordinates":[[[-163.459,62.671],[-163.5,62.652],[-163.524,62.574],[-163.582,62.6],[-163.619,62.675],[-163.456,62.71],[-163.41,62.679],[-163.459,62.671]]]}},{"type":"Feature","properties":{"name":"Wheeler Lake"},"geometry":{"type":"Polygon","coordinates":[[[-87.661,34.814],[-87.542,34.851],[-87.383,34.851],[-87.006,34.683],[-86.899,34.575],[-86.959,34.565],[-87.323,34.767],[-87.512,34.792],[-87.7,34.773],[-87.661,34.814]]]}},{"type":"Feature","properties":{"name":null},"geometry":{"type":"Polygon","coordinates":[[[-76.677,51.373],[-76.554,51.364],[-76.751,51.288],[-77.026,51.329],[-76.903,51.355],[-76.819,51.416],[-76.677,51.373]]]}},{"type":"Feature","properties":{"name":null},"geometry":{"type":"Polygon","coordinates":[[[-91.418,51.12],[-91.39,51.071],[-91.542,51.085],[-91.647,51.154],[-91.441,51.163],[-91.418,51.12]]]}},{"type":"Feature","properties":{"name":null},"geometry":{"type":"Polygon","coordinates":[[[-91.97,51.958],[-91.95,51.982],[-91.895,51.952],[-91.91,51.911],[-91.932,51.894],[-91.991,51.937],[-91.97,51.958]]]}},{"type":"Feature","properties":{"name":null},"geometry":{"type":"Polygon","coordinates":[[[-78.616,51.077],[-78.55,51.034],[-78.813,51.097],[-78.827,51.152],[-78.616,51.077]]]}},{"type":"Feature","properties":{"name":null},"geometry":{"type":"Polygon","coordinates":[[[-78.628,47.597],[-78.763,47.57],[-78.813,47.656],[-78.792,47.691],[-78.612,47.681],[-78.571,47.656],[-78.628,47.597]]]}},{"type":"Feature","properties":{"name":null},"geometry":{"type":"Polygon","coordinates":[[[-77.273,47.591],[-77.235,47.55],[-77.129,47.561],[-77.065,47.508],[-76.935,47.488],[-76.966,47.442],[-77.119,47.477],[-77.185,47.456],[-77.165,47.389],[-77.259,47.347],[-77.289,47.386],[-77.27,47.463],[-77.322,47.573],[-77.304,47.607],[-77.273,47.591]]]}},{"type":"Feature","properties":{"name":null},"geometry":{"type":"Polygon","coordinates":[[[-108.09,64.715],[-108.044,64.749],[-107.979,64.72],[-108.063,64.697],[-108.09,64.715]]]}},{"type":"Feature","properties":{"name":null},"geometry":{"type":"Polygon","coordinates":[[[-108.189,64.646],[-108.533,64.562],[-108.24,64.684],[-108.18,64.686],[-108.189,64.646]]]}},{"type":"Feature","properties":{"name":null},"geometry":{"type":"Polygon","coordinates":[[[-108.929,64.6],[-109.09,64.587],[-109.071,64.711],[-108.93,64.706],[-108.821,64.552],[-108.929,64.6]]]}},{"type":"Feature","properties":{"name":null},"geometry":{"type":"Polygon","coordinates":[[[-109.251,64.594],[-109.34,64.655],[-109.347,64.758],[-109.24,64.74],[-109.284,64.702],[-109.272,64.662],[-109.149,64.58],[-109.16,64.547],[-109.273,64.536],[-109.235,64.565],[-109.251,64.594]]]}},{"type":"Feature","properties":{"name":null},"geometry":{"type":"Polygon","coordinates":[[[-78.866,71.16],[-78.671,71.126],[-78.699,71.1],[-78.896,71.089],[-79.211,71.097],[-79.367,71.149],[-79.277,71.175],[-78.866,71.16]]]}},{"type":"Feature","properties":{"name":null},"geometry":{"type":"Polygon","coordinates":[[[-104.511,69.718],[-104.646,69.733],[-104.862,69.856],[-104.358,69.815],[-104.388,69.756],[-104.511,69.718]]]}},{"type":"Feature","properties":{"name":null},"geometry":{"type":"Polygon","coordinates":[[[-98.382,67.384],[-98.229,67.332],[-98.421,67.192],[-98.546,67.243],[-98.486,67.421],[-98.382,67.384]]]}},{"type":"Feature","properties":{"name":null},"geometry":{"type":"Polygon","coordinates":[[[-96.285,55.238],[-96.055,55.287],[-95.789,55.4],[-95.702,55.401],[-95.676,55.364],[-95.733,55.308],[-96.106,55.217],[-96.285,55.238]]]}},{"type":"Feature","properties":{"name":null},"geometry":{"type":"Polygon","coordinates":[[[-102.363,54.578],[-102.287,54.715],[-102.197,54.738],[-102.116,54.708],[-102.128,54.494],[-102.169,54.455],[-102.34,54.475],[-102.378,54.516],[-102.363,54.578]]]}},{"type":"Feature","properties":{"name":null},"geometry":{"type":"Polygon","coordinates":[[[-105.812,54.234],[-105.714,54.492],[-105.683,54.509],[-105.568,54.459],[-105.57,54.327],[-105.673,54.222],[-105.714,54.086],[-105.755,54.055],[-105.805,54.078],[-105.812,54.234]]]}},{"type":"Feature","properties":{"name":null},"geometry":{"type":"Polygon","coordinates":[[[-70.932,53.519],[-70.935,53.483],[-70.843,53.427],[-70.865,53.407],[-70.98,53.431],[-71.125,53.565],[-71.117,53.591],[-71.019,53.596],[-70.95,53.565],[-70.932,53.519]]]}},{"type":"Feature","properties":{"name":null},"geometry":{"type":"Polygon","coordinates":[[[-60.904,52.55],[-60.724,52.444],[-60.604,52.329],[-60.648,52.315],[-60.79,52.424],[-61.15,52.589],[-61.297,52.603],[-61.139,52.619],[-60.904,52.55]]]}},{"type":"Feature","properties":{"name":null},"geometry":{"type":"Polygon","coordinates":[[[-111.996,64.66],[-111.988,64.69],[-112.326,64.86],[-112.343,64.899],[-112.114,64.848],[-111.887,64.701],[-111.966,64.638],[-111.996,64.66]]]}},{"type":"Feature","properties":{"name":null},"geometry":{"type":"Polygon","coordinates":[[[-83.611,48.378],[-83.781,48.305],[-83.925,48.307],[-83.721,48.421],[-83.573,48.424],[-83.429,48.506],[-83.468,48.434],[-83.611,48.378]]]}},{"type":"Feature","properties":{"name":null},"geometry":{"type":"Polygon","coordinates":[[[-107.063,55.82],[-107.011,55.89],[-106.947,55.921],[-106.88,55.908],[-106.973,55.815],[-107.063,55.82]]]}},{"type":"Feature","properties":{"name":null},"geometry":{"type":"Polygon","coordinates":[[[-106.472,55.631],[-106.551,55.668],[-106.539,55.689],[-106.344,55.76],[-106.341,55.662],[-106.472,55.631]]]}},{"type":"Feature","properties":{"name":null},"geometry":{"type":"Polygon","coordinates":[[[-102.597,62.657],[-102.551,62.499],[-102.576,62.45],[-102.737,62.41],[-102.677,62.56],[-102.774,62.704],[-102.66,62.76],[-102.597,62.657]]]}},{"type":"Feature","properties":{"name":null},"geometry":{"type":"Polygon","coordinates":[[[-103.447,61.366],[-103.478,61.431],[-103.456,61.513],[-103.342,61.562],[-103.21,61.677],[-103.144,61.653],[-103.447,61.366]]]}},{"type":"Feature","properties":{"name":null},"geometry":{"type":"Polygon","coordinates":[[[-103.836,58.609],[-103.786,58.691],[-103.663,58.702],[-103.6,58.661],[-103.668,58.545],[-103.836,58.609]]]}},{"type":"Feature","properties":{"name":null},"geometry":{"type":"Polygon","coordinates":[[[-69.153,56.507],[-69.123,56.332],[-69.077,56.272],[-68.795,56.055],[-69.121,56.248],[-69.189,56.326],[-69.195,56.427],[-69.274,56.504],[-69.128,56.65],[-69.153,56.507]]]}},{"type":"Feature","properties":{"name":null},"geometry":{"type":"Polygon","coordinates":[[[-88.93,66.577],[-89.089,66.483],[-89.075,66.556],[-88.792,66.633],[-88.82,66.596],[-88.93,66.577]]]}},{"type":"Feature","properties":{"name":null},"geometry":{"type":"Polygon","coordinates":[[[-88.202,66.633],[-88.091,66.605],[-88.213,66.581],[-88.284,66.634],[-88.396,66.657],[-88.547,66.64],[-88.682,66.579],[-88.71,66.597],[-88.711,66.632],[-88.615,66.711],[-88.341,66.705],[-88.202,66.633]]]}}]}