{"type":"FeatureCollection","features":[{"type":"Feature","properties":{},"geometry":{"type":"LineString","coordinates":[[-84.325,34.988],[-84.261,35.25],[-84.062,35.286],[-84.004,35.414],[-83.871,35.515],[-83.511,35.584],[-82.99,35.8],[-82.902,35.939],[-82.7,36.03],[-82.611,36.047],[-82.553,35.971],[-82.295,36.134],[-82.051,36.123],[-81.908,36.306],[-81.734,36.355],[-81.659,36.611]]}},{"type":"Feature","properties":{},"geometry":{"type":"LineString","coordinates":[[-74.699,41.357],[-74.812,41.302],[-74.912,41.155],[-75.123,40.999],[-75.075,40.884],[-75.175,40.776],[-75.189,40.596],[-74.735,40.155],[-75.074,39.983]]}},{"type":"Feature","properties":{},"geometry":{"type":"LineString","coordinates":[[-71.518,45.008],[-71.51,44.908],[-71.621,44.772],[-71.568,44.608],[-71.609,44.514],[-72.031,44.301],[-72.115,43.965],[-72.362,43.587],[-72.474,43.039],[-72.55,42.887],[-72.467,42.73]]}},{"type":"Feature","properties":{},"geometry":{"type":"LineString","coordinates":[[-82.589,38.42],[-82.6,38.432]]}},{"type":"Feature","properties":{},"geometry":{"type":"LineString","coordinates":[[-82.613,38.448],[-82.589,38.42]]}},{"type":"Feature","properties":{},"geometry":{"type":"LineString","coordinates":[[-81.965,37.54],[-82.103,37.571],[-82.28,37.687],[-82.589,38.1],[-82.62,38.182],[-82.589,38.42]]}},{"type":"Feature","properties":{},"geometry":{"type":"LineString","coordinates":[[-81.965,37.54],[-82.682,37.138],[-82.895,36.906],[-83.15,36.762],[-83.668,36.605]]}},{"type":"Feature","properties":{},"geometry":{"type":"LineString","coordinates":[[-89.735,31.001],[-89.838,30.69],[-89.592,30.223],[-89.521,30.193]]}},{"type":"Feature","properties":{},"geometry":{"type":"LineString","coordinates":[[-96.556,45.943],[-96.599,46.272],[-96.787,46.648],[-96.77,46.92],[-96.825,47.019],[-96.859,47.588],[-97.126,48.173],[-97.128,48.681],[-97.226,48.994]]}},{"type":"Feature","properties":{},"geometry":{"type":"LineString","coordinates":[[-94.047,33.554],[-94.378,33.566],[-94.484,33.648]]}},{"type":"Feature","properties":{},"geometry":{"type":"LineString","coordinates":[[-75.421,39.815],[-75.635,39.839],[-75.785,39.722]]}},{"type":"Feature","properties":{},"geometry":{"type":"LineString","coordinates":[[-81.087,35.156],[-81.045,35.066]]}},{"type":"Feature","properties":{},"geometry":{"type":"LineString","coordinates":[[-82.778,35.087],[-82.356,35.202]]}},{"type":"Feature","properties":{},"geometry":{"type":"LineString","coordinates":[[-120,60.001],[-120.001,53.844],[-119.904,53.723],[-119.735,53.634],[-119.918,53.612],[-119.894,53.516],[-119.68,53.371],[-119.4,53.353],[-119.261,53.209],[-119.046,53.144],[-118.993,53.236],[-118.804,53.153],[-118.631,52.909],[-118.502,52.888],[-118.33,52.709],[-118.35,52.623],[-118.225,52.483],[-118.221,52.386],[-118.06,52.413],[-118.002,52.486],[-117.758,52.395],[-117.735,52.353],[-117.822,52.272],[-117.788,52.233],[-117.587,52.142],[-117.348,52.159],[-117.037,51.886],[-116.913,51.714],[-116.674,51.791],[-116.31,51.448],[-116.25,51.323],[-116.054,51.237],[-115.94,51.102],[-115.619,50.962],[-115.64,50.869],[-115.311,50.697],[-115.222,50.563],[-115.091,50.585],[-114.993,50.545],[-114.789,50.359],[-114.652,50.02],[-114.643,49.73],[-114.737,49.604],[-114.717,49.569],[-114.602,49.551],[-114.565,49.394],[-114.355,49.211],[-114.19,49.168],[-114.057,49.038],[-114.063,48.993]]}},{"type":"Feature","properties":{},"geometry":{"type":"LineString","coordinates":[[-123.819,60.001],[-123.994,60.04],[-123.992,60.099],[-124.205,60.353],[-124.225,60.453],[-124.403,60.494],[-124.599,60.662],[-124.611,60.701],[-124.505,60.788],[-124.583,60.953],[-124.807,60.961],[-124.88,60.86],[-125.322,60.792],[-125.899,60.89],[-126.003,60.809],[-126.162,60.866],[-126.297,60.785],[-126.832,60.764],[-126.89,60.796],[-126.944,61.052],[-127.093,61.071],[-127.027,61.126],[-127.021,61.237],[-127.167,61.465],[-127.609,61.533],[-127.807,61.619],[-127.994,61.711],[-128.047,61.813],[-128.206,61.865],[-128.561,62.117],[-128.814,62.064],[-128.88,62.111],[-129.255,62.153],[-129.233,62.22],[-129.293,62.294],[-129.239,62.373],[-129.294,62.411],[-129.2,62.47],[-129.211,62.513],[-129.49,62.599],[-129.719,62.832],[-129.714,62.931],[-129.63,63.068],[-129.827,63.092],[-129.906,63.187],[-130.134,63.276],[-129.845,63.486],[-130.098,63.679],[-130.285,63.686],[-130.298,63.721],[-130.118,63.793],[-130.758,63.993],[-130.93,64.125],[-130.931,64.219],[-131.107,64.401],[-131.359,64.458],[-131.586,64.38],[-131.797,64.388],[-131.729,64.534],[-132.106,64.702],[-132.588,64.794],[-132.497,64.957],[-132.354,65.039],[-132.516,65.094],[-132.54,65.17],[-132.773,65.203],[-132.346,65.443],[-132.195,65.598],[-132.295,65.716],[-132.555,65.857],[-132.341,65.955],[-132.614,66.029],[-132.903,65.914],[-132.948,65.917],[-132.938,66.029],[-133.412,65.956],[-133.622,65.975],[-133.676,66.074],[-133.569,66.177],[-133.583,66.285],[-133.79,66.304],[-133.76,66.416],[-133.652,66.472],[-133.635,66.566],[-133.764,66.651],[-133.794,66.819],[-134.031,66.944],[-134.056,67.004],[-136.169,67.015],[-136.223,67.088],[-136.218,67.181],[-136.108,67.288],[-136.178,67.423],[-136.169,67.514],[-136.233,67.6],[-136.401,67.666],[-136.445,67.747],[-136.444,68.895]]}},{"type":"Feature","properties":{},"geometry":{"type":"LineString","coordinates":[[-68.379,47.589],[-68.628,47.421],[-69.054,47.295]]}},{"type":"Feature","properties":{},"geometry":{"type":"LineString","coordinates":[[-67.613,47.999],[-67.579,47.94],[-67.365,47.855],[-67.058,47.919],[-66.952,47.899],[-66.925,47.964],[-66.704,48.022]]}},{"type":"Feature","properties":{},"geometry":{"type":"LineString","coordinates":[[-120.001,42.001],[-124.228,42.001]]}},{"type":"Feature","properties":{},"geometry":{"type":"LineString","coordinates":[[-111.051,44.499],[-111.373,44.746],[-111.448,44.711],[-111.479,44.554],[-112.231,44.561],[-112.393,44.468],[-112.716,44.498],[-112.854,44.398],[-113,44.48],[-113.141,44.765],[-113.32,44.803],[-113.461,44.904],[-113.447,45.029],[-113.697,45.305],[-113.797,45.588],[-113.978,45.692],[-114.298,45.488],[-114.529,45.576],[-114.496,45.686],[-114.523,45.815],[-114.405,45.874],[-114.485,46.158],[-114.33,46.638],[-114.563,46.65],[-114.662,46.746],[-114.74,46.734],[-115.307,47.231],[-115.702,47.438],[-115.718,47.681],[-116.049,48.005],[-116.048,48.993]]}},{"type":"Feature","properties":{},"geometry":{"type":"LineString","coordinates":[[-111.051,44.499],[-111.05,42.001]]}},{"type":"Feature","properties":{},"geometry":{"type":"LineString","coordinates":[[-111.051,44.499],[-111.051,45.001],[-104.037,45.001]]}},{"type":"Feature","properties":{},"geometry":{"type":"LineString","coordinates":[[-117.017,42.001],[-120.001,42.001]]}},{"type":"Feature","properties":{},"geometry":{"type":"LineString","coordinates":[[-117.017,42.001],[-114.043,42.001]]}},{"type":"Feature","properties":{},"geometry":{"type":"LineString","coordinates":[[-111.05,42.001],[-114.043,42.001]]}},{"type":"Feature","properties":{},"geometry":{"type":"LineString","coordinates":[[-111.05,42.001],[-111.05,41.001],[-109.046,41.001]]}},{"type":"Feature","properties":{},"geometry":{"type":"LineString","coordinates":[[-114.043,42.001],[-114.04,37.004]]}},{"type":"Feature","properties":{},"geometry":{"type":"LineString","coordinates":[[-114.04,37.004],[-109.047,37.001]]}},{"type":"Feature","properties":{},"geometry":{"type":"LineString","coordinates":[[-109.047,37.001],[-109.048,31.328]]}},{"type":"Feature","properties":{},"geometry":{"type":"LineString","coordinates":[[-109.046,41.001],[-104.022,41.001]]}},{"type":"Feature","properties":{},"geometry":{"type":"LineString","coordinates":[[-109.046,41.001],[-109.047,37.001]]}},{"type":"Feature","properties":{},"geometry":{"type":"LineString","coordinates":[[-103.001,37.001],[-109.047,37.001]]}},{"type":"Feature","properties":{},"geometry":{"type":"LineString","coordinates":[[-104.011,45.943],[-104.034,48.993]]}},{"type":"Feature","properties":{},"geometry":{"type":"LineString","coordinates":[[-104.037,45.001],[-104.005,45.001],[-104.011,45.943]]}},{"type":"Feature","properties":{},"geometry":{"type":"LineString","coordinates":[[-104.029,43.001],[-104.037,45.001]]}},{"type":"Feature","properties":{},"geometry":{"type":"LineString","coordinates":[[-96.556,45.943],[-104.011,45.943]]}},{"type":"Feature","properties":{},"geometry":{"type":"LineString","coordinates":[[-104.022,41.001],[-104.029,43.001]]}},{"type":"Feature","properties":{},"geometry":{"type":"LineString","coordinates":[[-102.024,40.001],[-102.025,41.001],[-104.022,41.001]]}},{"type":"Feature","properties":{},"geometry":{"type":"LineString","coordinates":[[-102.013,37.001],[-102.024,40.001]]}},{"type":"Feature","properties":{},"geometry":{"type":"LineString","coordinates":[[-95.347,40.001],[-102.024,40.001]]}},{"type":"Feature","properties":{},"geometry":{"type":"LineString","coordinates":[[-103,36.501],[-103.001,37.001]]}},{"type":"Feature","properties":{},"geometry":{"type":"LineString","coordinates":[[-102.013,37.001],[-103.001,37.001]]}},{"type":"Feature","properties":{},"geometry":{"type":"LineString","coordinates":[[-94.484,33.648],[-94.709,33.699],[-95.216,33.959],[-95.374,33.874],[-95.523,33.887],[-95.594,33.945],[-95.784,33.865],[-95.942,33.883],[-96.315,33.711],[-96.592,33.849],[-96.625,33.911],[-96.746,33.854],[-96.934,33.953],[-97.145,33.738],[-97.215,33.897],[-97.398,33.831],[-97.641,33.992],[-97.842,33.876],[-97.922,33.878],[-97.951,33.971],[-98.069,34.04],[-98.099,34.145],[-98.356,34.142],[-98.454,34.078],[-98.608,34.161],[-99.158,34.223],[-99.253,34.388],[-99.36,34.456],[-99.405,34.392],[-99.686,34.416],[-99.999,34.587],[-100.002,36.501],[-103,36.501]]}},{"type":"Feature","properties":{},"geometry":{"type":"LineString","coordinates":[[-94.618,37.001],[-102.013,37.001]]}},{"type":"Feature","properties":{},"geometry":{"type":"LineString","coordinates":[[-96.454,43.501],[-96.599,43.498],[-96.535,43.338],[-96.563,43.243],[-96.461,43.13],[-96.627,42.757],[-96.481,42.511]]}},{"type":"Feature","properties":{},"geometry":{"type":"LineString","coordinates":[[-94.625,39.086],[-94.618,37.001]]}},{"type":"Feature","properties":{},"geometry":{"type":"LineString","coordinates":[[-94.622,39.124],[-94.625,39.086]]}},{"type":"Feature","properties":{},"geometry":{"type":"LineString","coordinates":[[-94.618,37.001],[-94.618,36.501]]}},{"type":"Feature","properties":{},"geometry":{"type":"LineString","coordinates":[[-95.765,40.602],[-91.732,40.625],[-91.442,40.379]]}},{"type":"Feature","properties":{},"geometry":{"type":"LineString","coordinates":[[-94.041,33.012],[-94.047,33.554]]}},{"type":"Feature","properties":{},"geometry":{"type":"LineString","coordinates":[[-94.618,36.501],[-94.439,35.387],[-94.484,33.648]]}},{"type":"Feature","properties":{},"geometry":{"type":"LineString","coordinates":[[-94.618,36.501],[-90.162,36.501],[-90.074,36.372],[-90.076,36.297],[-90.381,35.993],[-89.705,36.002]]}},{"type":"Feature","properties":{},"geometry":{"type":"LineString","coordinates":[[-80.519,40.647],[-80.521,42.324]]}},{"type":"Feature","properties":{},"geometry":{"type":"LineString","coordinates":[[-79.477,39.723],[-80.519,39.723],[-80.519,40.647]]}},{"type":"Feature","properties":{},"geometry":{"type":"LineString","coordinates":[[-93.794,29.977],[-93.711,30.113],[-93.75,30.345],[-93.72,30.558],[-93.579,30.824],[-93.531,31.046],[-93.558,31.18],[-93.807,31.569],[-93.846,31.793],[-94.043,31.999],[-94.041,33.012]]}},{"type":"Feature","properties":{},"geometry":{"type":"LineString","coordinates":[[-94.041,33.012],[-91.15,33.016]]}},{"type":"Feature","properties":{},"geometry":{"type":"LineString","coordinates":[[-90.294,35.001],[-88.173,34.999]]}},{"type":"Feature","properties":{},"geometry":{"type":"LineString","coordinates":[[-85.007,31.002],[-87.594,31.001],[-87.601,30.861],[-87.408,30.641],[-87.49,30.378]]}},{"type":"Feature","properties":{},"geometry":{"type":"LineString","coordinates":[[-83.097,35.002],[-83.096,35.001]]}},{"type":"Feature","properties":{},"geometry":{"type":"LineString","coordinates":[[-84.325,34.988],[-85.624,35.001]]}},{"type":"Feature","properties":{},"geometry":{"type":"LineString","coordinates":[[-83.115,35.001],[-84.325,34.988]]}},{"type":"Feature","properties":{},"geometry":{"type":"LineString","coordinates":[[-82.778,35.087],[-83.115,35.001]]}},{"type":"Feature","properties":{},"geometry":{"type":"LineString","coordinates":[[-81.045,35.066],[-80.934,35.114],[-80.793,34.963],[-80.784,34.829],[-79.654,34.797],[-78.564,33.877]]}},{"type":"Feature","properties":{},"geometry":{"type":"LineString","coordinates":[[-82.356,35.202],[-81.087,35.156]]}},{"type":"Feature","properties":{},"geometry":{"type":"LineString","coordinates":[[-71.801,42.012],[-71.387,42.017],[-71.341,41.798],[-71.234,41.707]]}},{"type":"Feature","properties":{},"geometry":{"type":"LineString","coordinates":[[-73.481,42.056],[-71.801,42.012]]}},{"type":"Feature","properties":{},"geometry":{"type":"LineString","coordinates":[[-71.801,42.012],[-71.796,41.52],[-71.842,41.336]]}},{"type":"Feature","properties":{},"geometry":{"type":"LineString","coordinates":[[-81.965,37.54],[-81.971,37.473],[-81.876,37.33],[-81.589,37.208],[-81.35,37.334],[-81.178,37.263],[-80.944,37.302],[-80.843,37.422],[-80.72,37.401],[-80.507,37.469],[-80.465,37.433],[-80.316,37.51],[-80.246,37.621],[-80.285,37.677],[-80.246,37.751],[-79.972,38.046],[-79.64,38.572],[-79.396,38.454],[-79.24,38.477],[-79.041,38.79],[-78.869,38.818],[-78.581,38.999],[-78.435,39.161],[-78.322,39.452],[-77.836,39.145],[-77.727,39.346]]}},{"type":"Feature","properties":{},"geometry":{"type":"LineString","coordinates":[[-79.477,39.723],[-75.785,39.722]]}},{"type":"Feature","properties":{},"geometry":{"type":"LineString","coordinates":[[-79.477,39.723],[-79.488,39.211]]}},{"type":"Feature","properties":{},"geometry":{"type":"LineString","coordinates":[[-75.785,39.722],[-75.707,38.455],[-75.038,38.456]]}},{"type":"Feature","properties":{},"geometry":{"type":"LineString","coordinates":[[-75.659,37.954],[-75.62,37.999],[-75.224,38.041]]}},{"type":"Feature","properties":{},"geometry":{"type":"LineString","coordinates":[[-77.02,38.807],[-76.931,38.888],[-77.042,39.012],[-77.122,38.944]]}},{"type":"Feature","properties":{},"geometry":{"type":"LineString","coordinates":[[-74.699,41.357],[-74.757,41.424],[-74.981,41.508],[-75.051,41.608],[-75.096,41.832],[-75.351,41.998],[-79.763,42.001],[-79.762,42.539]]}},{"type":"Feature","properties":{},"geometry":{"type":"LineString","coordinates":[[-73.253,42.752],[-73.507,42.08],[-73.481,42.056]]}},{"type":"Feature","properties":{},"geometry":{"type":"LineString","coordinates":[[-73.481,42.056],[-73.545,41.296],[-73.484,41.219],[-73.723,41.105],[-73.63,40.992]]}},{"type":"Feature","properties":{},"geometry":{"type":"LineString","coordinates":[[-74.699,41.357],[-73.91,40.992]]}},{"type":"Feature","properties":{},"geometry":{"type":"LineString","coordinates":[[-72.467,42.73],[-73.253,42.752]]}},{"type":"Feature","properties":{},"geometry":{"type":"LineString","coordinates":[[-73.253,42.752],[-73.247,43.553],[-73.306,43.616],[-73.391,43.579],[-73.413,43.628],[-73.375,43.804],[-73.426,44.075],[-73.332,44.245],[-73.31,44.46],[-73.372,44.597],[-73.352,45.005]]}},{"type":"Feature","properties":{},"geometry":{"type":"LineString","coordinates":[[-70.806,42.877],[-70.974,42.872],[-71.33,42.702],[-72.467,42.73]]}},{"type":"Feature","properties":{},"geometry":{"type":"LineString","coordinates":[[-70.733,43.07],[-70.968,43.458],[-71.085,45.294]]}},{"type":"Feature","properties":{},"geometry":{"type":"LineString","coordinates":[[-96.454,43.501],[-96.454,45.297],[-96.696,45.432],[-96.851,45.626],[-96.615,45.8],[-96.556,45.943]]}},{"type":"Feature","properties":{},"geometry":{"type":"LineString","coordinates":[[-91.245,43.502],[-96.454,43.501]]}},{"type":"Feature","properties":{},"geometry":{"type":"LineString","coordinates":[[-84.796,41.701],[-83.464,41.739],[-83.122,41.95]]}},{"type":"Feature","properties":{},"geometry":{"type":"LineString","coordinates":[[-89.958,47.287],[-89.498,47.998]]}},{"type":"Feature","properties":{},"geometry":{"type":"LineString","coordinates":[[-87.221,41.761],[-87.039,42.493]]}},{"type":"Feature","properties":{},"geometry":{"type":"LineString","coordinates":[[-90.651,42.513],[-87.039,42.493]]}},{"type":"Feature","properties":{},"geometry":{"type":"LineString","coordinates":[[-84.822,39.092],[-84.796,41.701]]}},{"type":"Feature","properties":{},"geometry":{"type":"LineString","coordinates":[[-87.221,41.761],[-84.796,41.76],[-84.796,41.701]]}},{"type":"Feature","properties":{},"geometry":{"type":"LineString","coordinates":[[-87.039,42.493],[-87.155,43.327],[-87.142,43.658],[-87.032,44.091],[-86.715,44.846],[-86.536,45.041],[-86.265,45.227],[-86.774,45.452],[-87.115,45.452],[-87.244,45.29],[-87.42,45.184],[-87.46,45.068],[-87.654,45.122],[-87.721,45.243],[-87.663,45.345],[-87.696,45.383],[-87.875,45.385],[-87.795,45.596],[-87.84,45.718],[-88.116,45.816],[-88.096,45.878],[-88.152,45.945],[-88.837,46.037],[-89.119,46.149],[-90.119,46.342],[-90.23,46.51],[-90.413,46.585],[-89.958,47.287]]}},{"type":"Feature","properties":{},"geometry":{"type":"LineString","coordinates":[[-91.656,31.002],[-89.735,31.001]]}},{"type":"Feature","properties":{},"geometry":{"type":"LineString","coordinates":[[-89.487,36.503],[-89.557,36.501]]}},{"type":"Feature","properties":{},"geometry":{"type":"LineString","coordinates":[[-114.611,34.991],[-118.126,37.692],[-120,39],[-120.001,42.001]]}},{"type":"Feature","properties":{},"geometry":{"type":"LineString","coordinates":[[-67.613,47.999],[-68.114,47.999],[-68.114,47.929],[-68.378,47.929],[-68.379,47.589]]}},{"type":"Feature","properties":{},"geometry":{"type":"LineString","coordinates":[[-123.819,60.001],[-139.057,60.002]]}},{"type":"Feature","properties":{},"geometry":{"type":"LineString","coordinates":[[-120,60.001],[-123.819,60.001]]}},{"type":"Feature","properties":{},"geometry":{"type":"LineString","coordinates":[[-64.031,46.013],[-64.315,45.836]]}},{"type":"Feature","properties":{},"geometry":{"type":"LineString","coordinates":[[-64.614,60.306],[-64.847,60.251],[-64.645,60.161],[-64.65,60.11],[-64.88,60.05],[-64.666,59.906],[-64.791,59.816],[-64.818,59.54],[-64.715,59.466],[-64.385,59.515],[-64.379,59.475],[-64.503,59.399],[-64.519,59.226],[-64.478,59.116],[-64.332,59.044],[-64.394,58.998],[-64.77,59.049],[-64.833,59.02],[-64.848,58.949],[-64.294,58.866],[-64.192,58.769],[-63.727,58.862],[-63.504,58.771],[-64.071,58.642],[-64.062,58.555],[-63.882,58.555],[-63.848,58.46],[-64.098,58.359],[-64.395,58.144],[-64.387,58.099],[-64.227,58.018],[-64.045,57.785],[-63.598,57.692],[-63.759,57.553],[-63.742,57.396],[-63.8,57.319],[-63.76,57.241],[-63.903,56.889],[-64.116,56.707],[-63.926,56.475],[-64.136,56.395],[-64.121,56.299],[-63.913,56.229],[-64.004,56.097],[-63.578,56.026],[-63.558,55.992],[-63.708,55.883],[-63.415,55.596],[-63.154,55.514],[-63.112,55.34],[-63.534,55.14],[-63.491,54.918],[-63.699,54.615],[-64.341,54.726],[-65.676,54.745],[-65.868,54.898],[-66.157,54.968],[-66.774,55.328],[-66.651,54.799],[-66.724,54.748],[-67.167,54.937],[-67.302,55.064],[-67.408,55.072],[-67.416,54.984],[-67.15,54.617],[-67.286,54.519],[-67.579,54.565],[-67.61,54.452],[-67.511,54.236],[-67.761,54.061],[-67.471,53.796],[-67.457,53.601],[-67.165,53.543],[-67.076,53.417],[-66.944,53.355],[-66.97,53.073],[-67.054,52.92],[-67.068,52.755],[-66.815,52.687],[-66.688,52.727],[-66.631,52.91],[-66.428,53.011],[-66.3,52.897],[-66.417,52.688],[-66.394,52.418],[-66.463,52.341],[-66.407,52.184],[-66.345,52.155],[-66.296,52.295],[-66.097,52.21],[-66.036,52.109],[-65.827,52.052],[-65.781,52.104],[-65.589,52.073],[-65.474,52.196],[-65.137,52.155],[-64.627,51.825],[-64.697,51.72],[-64.598,51.6],[-64.291,51.729],[-64.335,51.842],[-64.271,52.083],[-64.131,52.187],[-64.103,52.378],[-64.183,52.554],[-64.178,52.815],[-63.973,52.895],[-63.917,53.066],[-63.723,53.109],[-63.555,52.964],[-63.55,52.774],[-63.41,52.689],[-63.899,52.589],[-64.059,52.485],[-63.766,52.298],[-63.664,52.06],[-63.783,52.02],[-57.101,52.001],[-57.1,51.443]]}},{"type":"Feature","properties":{},"geometry":{"type":"LineString","coordinates":[[-102.002,60.001],[-101.999,64.228],[-109.215,64.813],[-109.516,64.903],[-110.669,65.497],[-112.504,65.502],[-120.678,68.003],[-120.681,69.649],[-116.65,69.65],[-117.075,69.889],[-117.055,70.002],[-112.881,70.001],[-112.875,69.833],[-112.65,69.834],[-112.5,69.912],[-112.5,70.001],[-110,70.001],[-110.004,78.687]]}},{"type":"Feature","properties":{},"geometry":{"type":"LineString","coordinates":[[-102.002,60.001],[-110,60.001]]}},{"type":"Feature","properties":{},"geometry":{"type":"LineString","coordinates":[[-120,60.001],[-110,60.001]]}},{"type":"Feature","properties":{},"geometry":{"type":"LineString","coordinates":[[-110,60.001],[-109.999,48.993]]}},{"type":"Feature","properties":{},"geometry":{"type":"LineString","coordinates":[[-88.948,56.851],[-91.378,55.317],[-93.62,53.748],[-95.154,52.822],[-95.155,49.37]]}},{"type":"Feature","properties":{},"geometry":{"type":"LineString","coordinates":[[-102.002,60.001],[-94.772,60.002]]}},{"type":"Feature","properties":{},"geometry":{"type":"LineString","coordinates":[[-102.002,60.001],[-102.001,55.818],[-101.367,48.993]]}},{"type":"Feature","properties":{},"geometry":{"type":"LineString","coordinates":[[-116.896,46.002],[-119.002,46.001],[-120.351,45.725],[-121.045,45.639],[-121.663,45.718],[-122.203,45.591],[-122.65,45.627],[-122.726,45.674],[-122.942,46.115],[-123.121,46.179],[-123.221,46.154]]}},{"type":"Feature","properties":{},"geometry":{"type":"LineString","coordinates":[[-116.896,46.002],[-116.943,46.232],[-117.039,46.397],[-117.039,48.993]]}},{"type":"Feature","properties":{},"geometry":{"type":"LineString","coordinates":[[-117.017,42.001],[-117.02,43.808],[-116.912,44.199],[-117.14,44.29],[-117.197,44.344],[-117.202,44.436],[-116.856,44.906],[-116.477,45.641],[-116.521,45.722],[-116.896,46.002]]}},{"type":"Feature","properties":{},"geometry":{"type":"LineString","coordinates":[[-114.611,34.991],[-114.557,34.795],[-114.371,34.488],[-114.159,34.355],[-114.126,34.287],[-114.418,34.051],[-114.509,33.904],[-114.522,33.608],[-114.603,33.47],[-114.702,33.418],[-114.704,33.17],[-114.648,33.072],[-114.491,32.984],[-114.469,32.912],[-114.516,32.773],[-114.725,32.715]]}},{"type":"Feature","properties":{},"geometry":{"type":"LineString","coordinates":[[-114.611,34.991],[-114.591,35.353],[-114.662,35.545],[-114.687,35.917],[-114.741,36.014],[-114.716,36.085],[-114.593,36.148],[-114.406,36.148],[-114.232,36.032],[-114.119,36.077],[-114.062,36.175],[-114.04,37.004]]}},{"type":"Feature","properties":{},"geometry":{"type":"LineString","coordinates":[[-103,36.501],[-103.042,36.501],[-103.066,32.003],[-106.662,32.001],[-106.566,31.82],[-106.445,31.768]]}},{"type":"Feature","properties":{},"geometry":{"type":"LineString","coordinates":[[-95.347,40.001],[-95.116,39.872],[-94.93,39.861],[-94.899,39.741],[-95.075,39.597],[-95.058,39.509],[-94.778,39.194],[-94.622,39.124]]}},{"type":"Feature","properties":{},"geometry":{"type":"LineString","coordinates":[[-95.765,40.602],[-95.662,40.363],[-95.521,40.265],[-95.347,40.001]]}},{"type":"Feature","properties":{},"geometry":{"type":"LineString","coordinates":[[-96.481,42.511],[-96.384,42.418],[-96.295,42.133],[-96.087,41.821],[-96.059,41.546],[-95.944,41.461],[-95.847,41.08],[-95.859,40.745],[-95.765,40.602]]}},{"type":"Feature","properties":{},"geometry":{"type":"LineString","coordinates":[[-96.481,42.511],[-96.805,42.701],[-97.239,42.861],[-97.698,42.875],[-97.965,42.806],[-98.442,43.001],[-104.029,43.001]]}},{"type":"Feature","properties":{},"geometry":{"type":"LineString","coordinates":[[-91.15,33.016],[-91.096,32.938],[-91.136,32.756],[-91.092,32.726],[-91.15,32.625],[-91.104,32.49],[-90.938,32.277],[-91.157,31.971],[-91.373,31.774],[-91.506,31.519],[-91.529,31.345],[-91.618,31.277],[-91.596,31.11],[-91.656,31.002]]}},{"type":"Feature","properties":{},"geometry":{"type":"LineString","coordinates":[[-90.294,35.001],[-90.32,34.899],[-90.539,34.728],[-90.635,34.414],[-90.762,34.356],[-90.91,34.189],[-90.943,34.03],[-91.07,33.974],[-91.053,33.828],[-91.207,33.676],[-91.173,33.617],[-91.215,33.583],[-91.141,33.439],[-91.163,33.294],[-91.117,33.241],[-91.15,33.016]]}},{"type":"Feature","properties":{},"geometry":{"type":"LineString","coordinates":[[-89.705,36.002],[-89.704,35.907],[-89.944,35.679],[-89.927,35.592],[-90.066,35.414],[-90.142,35.114],[-90.294,35.001]]}},{"type":"Feature","properties":{},"geometry":{"type":"LineString","coordinates":[[-89.557,36.501],[-89.555,36.373],[-89.604,36.352],[-89.595,36.259],[-89.675,36.221],[-89.642,36.105],[-89.705,36.002]]}},{"type":"Feature","properties":{},"geometry":{"type":"LineString","coordinates":[[-89.487,36.503],[-89.52,36.555],[-89.557,36.501]]}},{"type":"Feature","properties":{},"geometry":{"type":"LineString","coordinates":[[-89.45,36.5],[-89.487,36.503]]}},{"type":"Feature","properties":{},"geometry":{"type":"LineString","coordinates":[[-89.154,36.992],[-89.13,36.811],[-89.203,36.626],[-89.397,36.588],[-89.45,36.5]]}},{"type":"Feature","properties":{},"geometry":{"type":"LineString","coordinates":[[-91.442,40.379],[-91.502,40.098],[-91.379,39.749],[-90.919,39.387],[-90.577,38.91],[-90.354,38.93],[-90.127,38.833],[-90.317,38.458],[-90.366,38.254],[-90.174,38.069],[-89.823,37.884],[-89.523,37.645],[-89.462,37.434],[-89.487,37.213],[-89.352,37.036],[-89.301,37.012],[-89.272,37.08],[-89.154,36.992]]}},{"type":"Feature","properties":{},"geometry":{"type":"LineString","coordinates":[[-90.651,42.513],[-90.168,42.1],[-90.177,41.884],[-90.437,41.56],[-91.048,41.369],[-91.067,41.206],[-90.954,41.016],[-91.102,40.75],[-91.394,40.537],[-91.391,40.397],[-91.442,40.379]]}},{"type":"Feature","properties":{},"geometry":{"type":"LineString","coordinates":[[-91.245,43.502],[-91.219,43.395],[-91.117,43.331],[-91.161,43.102],[-91.07,42.789],[-90.789,42.677],[-90.688,42.61],[-90.651,42.513]]}},{"type":"Feature","properties":{},"geometry":{"type":"LineString","coordinates":[[-91.245,43.502],[-91.278,43.797],[-91.383,43.991],[-91.841,44.194],[-92.055,44.4],[-92.77,44.726],[-92.793,45.071],[-92.683,45.433],[-92.757,45.543],[-92.892,45.595],[-92.897,45.659],[-92.694,45.909],[-92.293,46.084],[-92.292,46.661],[-92.125,46.763],[-91.965,46.73],[-90.654,47.309],[-89.958,47.287]]}},{"type":"Feature","properties":{},"geometry":{"type":"LineString","coordinates":[[-88.042,37.789],[-88.129,37.7],[-88.108,37.534],[-88.191,37.465],[-88.495,37.364],[-88.472,37.088],[-88.873,37.186],[-89.046,37.183],[-89.135,37.102],[-89.154,36.992]]}},{"type":"Feature","properties":{},"geometry":{"type":"LineString","coordinates":[[-84.822,39.092],[-84.864,38.933],[-84.79,38.868],[-84.801,38.819],[-85.17,38.69],[-85.405,38.73],[-85.459,38.53],[-85.706,38.301],[-85.788,38.285],[-86.021,37.984],[-86.208,38.037],[-86.343,38.179],[-86.457,38.12],[-86.599,37.875],[-86.869,37.976],[-87.141,37.805],[-87.372,37.923],[-87.587,37.956],[-87.643,37.833],[-87.714,37.9],[-87.874,37.916],[-87.938,37.794],[-88.042,37.789]]}},{"type":"Feature","properties":{},"geometry":{"type":"LineString","coordinates":[[-82.613,38.448],[-82.758,38.541],[-82.88,38.71],[-83.203,38.639],[-83.357,38.627],[-83.538,38.7],[-83.69,38.65],[-84.227,38.865],[-84.43,39.091],[-84.707,39.129],[-84.822,39.092]]}},{"type":"Feature","properties":{},"geometry":{"type":"LineString","coordinates":[[-80.519,40.647],[-80.659,40.563],[-80.602,40.364],[-80.874,39.664],[-81.263,39.387],[-81.44,39.393],[-81.657,39.272],[-81.803,39.086],[-81.778,38.973],[-81.882,38.894],[-82.001,39.011],[-82.072,38.963],[-82.204,38.768],[-82.18,38.638],[-82.318,38.48],[-82.498,38.415],[-82.613,38.448]]}},{"type":"Feature","properties":{},"geometry":{"type":"LineString","coordinates":[[-88.042,37.789],[-88.095,37.876],[-87.958,38.144],[-87.98,38.249],[-87.873,38.295],[-87.681,38.488],[-87.529,38.742],[-87.53,38.909],[-87.647,39.169],[-87.533,39.375],[-87.521,41.761],[-87.221,41.761]]}},{"type":"Feature","properties":{},"geometry":{"type":"LineString","coordinates":[[-88.173,34.999],[-88.085,34.933],[-88.486,31.891],[-88.4,30.371]]}},{"type":"Feature","properties":{},"geometry":{"type":"LineString","coordinates":[[-85.624,35.001],[-88.19,35.025],[-88.173,34.999]]}},{"type":"Feature","properties":{},"geometry":{"type":"LineString","coordinates":[[-83.668,36.605],[-86.508,36.665],[-87.839,36.644],[-88.091,36.693],[-88.056,36.501],[-89.45,36.5]]}},{"type":"Feature","properties":{},"geometry":{"type":"LineString","coordinates":[[-81.659,36.611],[-83.668,36.605]]}},{"type":"Feature","properties":{},"geometry":{"type":"LineString","coordinates":[[-75.857,36.551],[-81.659,36.611]]}},{"type":"Feature","properties":{},"geometry":{"type":"LineString","coordinates":[[-85.007,31.002],[-84.884,30.721],[-82.24,30.566],[-82.194,30.393],[-82.112,30.371],[-82.03,30.478],[-82.038,30.732],[-81.957,30.814],[-81.504,30.731]]}},{"type":"Feature","properties":{},"geometry":{"type":"LineString","coordinates":[[-85.007,31.002],[-85.093,31.296],[-85.055,31.573],[-85.124,31.881],[-85.035,32.147],[-84.922,32.286],[-84.986,32.361],[-85.201,32.956],[-85.624,35.001]]}},{"type":"Feature","properties":{},"geometry":{"type":"LineString","coordinates":[[-83.115,35.001],[-83.317,34.806],[-83.356,34.708],[-83.053,34.511],[-82.848,34.437],[-82.589,34.017],[-82.006,33.523],[-81.78,33.195],[-81.578,33.069],[-81.377,32.607],[-81.29,32.557],[-81.172,32.38],[-81.135,32.182],[-81.075,32.11],[-80.872,32.03]]}},{"type":"Feature","properties":{},"geometry":{"type":"LineString","coordinates":[[-77.122,38.944],[-77.03,38.889],[-77.02,38.807]]}},{"type":"Feature","properties":{},"geometry":{"type":"LineString","coordinates":[[-77.727,39.346],[-77.479,39.221],[-77.481,39.113],[-77.122,38.944]]}},{"type":"Feature","properties":{},"geometry":{"type":"LineString","coordinates":[[-79.488,39.211],[-79.075,39.476],[-78.971,39.454],[-78.796,39.613],[-78.678,39.55],[-78.496,39.533],[-78.407,39.628],[-78.181,39.686],[-77.883,39.611],[-77.727,39.346]]}},{"type":"Feature","properties":{},"geometry":{"type":"LineString","coordinates":[[-79.521,51.545],[-79.513,47.556],[-79.559,47.483],[-79.365,47.022],[-78.781,46.393],[-77.683,46.187],[-77.373,46.064],[-77.233,45.904],[-77.031,45.807],[-76.941,45.801],[-76.913,45.876],[-76.824,45.88],[-76.553,45.542],[-76.413,45.496],[-76.001,45.484],[-75.904,45.42],[-74.864,45.642],[-74.577,45.632],[-74.397,45.568],[-74.478,45.318],[-74.34,45.214]]}}]}